"FilingID","Name","Street 1","Street 2","City","State","Country","Postal Code","Private Residence","Phone","Fax","Type","Description"
1038085,"STEGMAIER STEUERBERATUNGSGESELLSCHAFT MBH","SCHLEIßHEIMER STR. 12","85221","DACHAU","","Germany","","N","498131706628","49813170661","A third-party unaffiliated record keeper","GENERAL LEDGER AND STATUTORY RECORDS OF VITRUVIAN PARTNERS GMBH."
1038085,"MATRISEN AB","49 LUNTMAKARGATAN","","STOCKHOLM","","Sweden","104 22","N","46 8 506 59100","","A third-party unaffiliated record keeper","GENERAL LEDGER AND STATUTORY RECORDS OF VITRUVIAN PARTNERS AB"
1038434,"OPUS FUND SERVICES","500 E. DIEHL RD.","SUITE 100","NAPERVILLE","IL","United States","60563","N","(312)256-9974","","A third-party unaffiliated record keeper","BOOKS AND RECORDS ASSOCIATED WITHE FIRM'S ADVISORY ACTIVITIES."
1048701,"MAPLES CORPORATE SERVICES LIMITED","P.O. BOX 309","UGLAND HOUSE","GRAND CAYMAN","","Cayman Islands","KY1-1104","N","1-345-814-5354","","A third-party unaffiliated record keeper","MINUTE BOOKS FOR CERTAIN WEST FACE ENTITIES."
1048701,"AMT MANAGEMENT SERVICES","360 MAIN STREET","30TH FLOOR","WINNIPEG","","Canada","R3C4G1","N","204-957-4722","","A third-party unaffiliated record keeper","MINUTE BOOKS FOR CERTAIN WEST FACE ENTITIES"
1048701,"CO SERVICES CAYMAN LIMITED","P.O. BOX 10008","WILLOW HOUSE, CRICKET SQUARE","GRAND CAYMAN","","Cayman Islands","KY-1001","N","345-749-2004","44-1481-739081","A third-party unaffiliated record keeper","MINUTE BOOKS FOR CERTAIN WEST FACE ENTITIES."
1048701,"INTERNATIONAL FUND SERVICES (N.A.), LLC","1290 AVENUE OF THE AMERICAS","10TH FLOOR","NEW YORK","NY","United States","10104","N","212-848-3984","","A third-party unaffiliated record keeper","SUBSCRIPTION AND REDEMPTION DOCUMENTS, CLIENT TRANSACTION AND PERFORMANCE RECORDS."
1049479,"OPUS FUND SERVICES","500 E. DIEHL RD.","SUITE 100","NAPERVILLE","IL","United States","60563","N","(312) 256-9974","","A third-party unaffiliated record keeper","BOOKS AND RECORDS ASSOCIATED WITH THE FIRM'S FUND AND ADVISORY ACTIVITIES."
1058668,"TZUR CAPITAL MANAGEMENT LTD.","BEIT AMOT MISHPAT","8 SHAUL HAMELECH BLVD., 10TH FLOOR","TEL AVIV","","Israel","64733","N","97233730400","","A third-party unaffiliated record keeper","INVESTOR RECORDS FOR THE PRIVATE FUNDS MANAGED BY REGISTRANT."
1043187,"CITCO FUND SERVICES (CAYMAN ISLANDS) LIMITED","89 NEXUS, 2ND FLOOR","CAMANA BAY","GRAND CAYMAN","","Cayman Islands","2000","N","1-345-949-3977","1-345-949-3877","A third-party unaffiliated record keeper","FUND ACCOUNTS AND TRANSACTIONS"
1046638,"COHEN & ASSOCIATES, LLC","49 RICHMONDVILLE AVENUE","SUITE 105","WESTPORT","CT","United States","06880","N","(203) 454-2210","","A third-party unaffiliated record keeper","FUND RECORDS"
1050159,"HEDGESERV (CAYMAN) LTD","P.O BOX 261","WILLOW HOUSE CRICKET SQUARE","GRAND CAYMAN","","Cayman Islands","KYI-1104","N","345 769 8120","","A third-party unaffiliated record keeper","HEDGESERV SERVES AS THE FUND ADMINISTRATOR FOR THE FIRM."
1050159,"HEDGESERV LIMITED","75 ST STEPHENS GREEN","2ND FLOOR","DUBLIN","","Ireland","2","N","+3531234 1000","","A third-party unaffiliated record keeper","HEDGESERV SERVES AS THE FUND ADMINISTRATOR FOR THE FIRM."
1050159,"HEDGESERV","1251 AVENUE OF THE AMERICAS","21ST FLOOR","NEW YORK","NY","United States","10020","N","212 920 3520","","A third-party unaffiliated record keeper","HEDGESERV SERVES AS THE FUND ADMINISTRATOR FOR THE FIRM."
1048968,"ALPS ALTERNATIVE INVESTMENT SERVICES, LLC","2699 SOUTH BAYSHORE DRIVE","9TH FLOOR","MIAMI","FL","United States","33133","N","305-646-6080","786-470-2326","Other","FUND ADMINISTRATOR"
1048311,"CITCO FUND SERVICES (CAYMAN ISLANDS) LIMITED","89 NEXUS WAY","CAMANA BAY","GEORGE TOWN","","Cayman Islands","KY1-1206","N","1345949397","","Other","FUND ADMINISTRATOR RELATED DOCUMENTS"
1048311,"CONTROL GROUP (UK) LTD","ATLANTIC HOUSE, MICHIGAN DRIVE","TONGWELL","MILTON KEYNES","","United Kingdom","MK15 8HQ","N","+448452302485","","A third-party unaffiliated record keeper","OFF SITE ARCHIVE FOR IT TAPES, BOOKS AND RECORDS"
1054637,"ACTINVER WEALTH MAN","5075 WESTHEIMER","SUITE 650","HOUSTON","TX","United States","77056","N","713-885-9843","713-885-9849","One of your branch offices or affiliates","FUND DOCUMENTS, CLIENT RECORDS, ACCOUNTING, INVESTOR INFORMATION"
1058495,"STAGE ONE VENTURES","HAMENOFIM 2, SEAVIEW TOWERS BUILDING A","4TH FLOOR","HERZLIYA PITUACH","","Israel","","N","+972-9-779-225","+972-9-779-225","Other","RECORDS MAINTAINED BY THE INVESTMENT ADVISER."
1044225,"CIE MANAGEMENT II LIMITED","HERITAGE HALL","LE MARCHANT STREET","ST PETER PORT","","Guernsey","GY14HY","N","+441481716000","","One of your branch offices or affiliates","BOOKS AND RECORDS RELATING TO THE GENERAL PARTNER."
1044225,"CIE MANAGEMENT IX LIMITED","HERITAGE HALL","LE MARCHANT STREET","ST PETER PORT","","Guernsey","GY14HY","N","1481716000","1481716000","One of your branch offices or affiliates","BOOKS AND RECORDS RELATING TO THE GENERAL PARTNER"
1044225,"BC PARTNERS INC.","650 MADISON AVENUE","15TH FLOOR","NEW YORK","NY","United States","10022","N","+1 212 891 288","+1 212 891 289","One of your branch offices or affiliates","BOOKS AND RECORDS OF A BC PARTNERS AFFILIATE"
1044225,"BC PARTNERS SARL","58-60 AVENUE KLÉBER","","PARIS","","France","75116","N","+33 1 5357 600","+33 1 5357 600","One of your branch offices or affiliates","BOOKS AND RECORDS OF AN AFFILIATE"
1044225,"BC PARTNER BETEILIGUNGSBERATUNG GMBH","NEUER WALL 55","","HAMBURG","","Germany","20354","N","+49 40 889 177","+49 40 8891 77","One of your branch offices or affiliates","BOOKS AND RECORDS OF A BC PARTNERS AFFILIATE"
1044225,"BCEC MANAGEMENT X LIMITED","HERITAGE HALL","LE MARCHANT STREET","ST PETER PORT","","Guernsey","GY14HY","N","+44 1481 740 3","+44 1481 716 2","One of your branch offices or affiliates","BOOKS AND RECORDS RELATING TO THE GENERAL PARTNER"
1044225,"DIGITAL REALTY","3 FOXBORO PARK","HOLMETHORPE AVENUE","REDHILL","","United Kingdom","RH12NB","N","+442079549100","","A third-party unaffiliated record keeper","DISASTER RECOVERY DATACENTER"
1044225,"SURE (GUERNSEY) LIMITED","CENTENARY HOUSE","LA VRANGUE","ST PETER PORT","","Guernsey","GY12EY","N","01481700700","","A third-party unaffiliated record keeper","GUERNSEY DATA CENTER"
1045861,"HSKS GREENLAGH","3RD FLOOR, BUTT DYKE HOUSE","33 PARK ROW","NOTTINGHAM","","United Kingdom","NG1 6EE","N","+441159859517","","A third-party unaffiliated record keeper","ACCOUNTING RECORDS OF BROOK BAY CAPITAL (UK) LLP."
1051954,"CCL LIMITED","LEVEL 2, GATE VILLAGE 7","DIFC","DUBAI","","United Arab Emirates","506733","N","97143230800","","A third-party unaffiliated record keeper","ALL COMPLIANCE DOCUMENTATION IN RELATION TO THE DFSA AND DIFC REQUIREMENTS"
1054265,"GLOBEOP FINANCIAL SERVICES LLC","1 SOUTH ROAD","","HARRISON","NY","United States","10528","N","914-670-3600","914-670-3601","A third-party unaffiliated record keeper","GENERAL BUSINESS AND ACCOUNTING RECORDS"
1043776,"ELIAN FUND SERVICES (JERSEY) LIMITED","44 THE ESPLANADE","","ST HELIER","","Jersey","JE4 9WG","N","441534504000","441534504444","A third-party unaffiliated record keeper","CERTAIN BOOKS AND RECORDS RELATED TO ADP I GP LIMITED AND ADP I LP"
1040900,"TRICOR SERVICES LIMITED","LEVEL 54, HOPEWELL CENTRE","183 QUEEN'S ROAD EAST","HONG KONG","","Hong kong","","N","+85229801888","+85228610285","A third-party unaffiliated record keeper","CORPORATE RECORDS"
1040900,"CITCO FUND ADMINISTRATION (CAYMAN ISLANDS) LIMITED","89 NEXUS WAY, 2ND FLOOR","P.O BOX 31106","CAMANA BAY, GRAND CAYMAN","","Cayman Islands","KY1-1205","N","+65 6571 1000","+65 6571 1032","A third-party unaffiliated record keeper","THE ADMINISTRATOR PROVIDES A RANGE OF SERVICES, INCLUDING MAINTAINING THE REGISTER OF SHAREHOLDERS OF THE FUND, RECEIVING AND PROCESSING SUBSCRIPTION AND REDEMPTION AGREEMENTS OR APPLICATIONS, SUBMITTING TO SHAREHOLDERS A STATEMENT OF THEIR HOLDINGS IN THE FUND UPON REQUEST, CALCULATION OF NET ASSET VALUE, MAINTENANCE OF ACCOUNTING REPORTS, PREPARATION OF FINANCIAL STATEMENTS FOR AUDIT PURPOSES AND LIAISON WITH AUDITORS."
1048220,"TFM MANAGEMENT (UK) LTD","400 CAPABILITY GREEN","","LUTON","","United Kingdom","LU1 3AE","N","44 (0) 1582 43","","A third-party unaffiliated record keeper","RECORDS OF PRIVATE INVESTMENT FUNDS."
1048220,"IRONBRIDGE CAPITAL G.P. LTD","89 NEXUS WAY","","CAMANA BAY, GRAND CAYMAN","","Cayman Islands","KY1-9007","N","345 815 1407","","One of your branch offices or affiliates","RECORDS OF PRIVATE INVESTMENT FUNDS."
1048220,"IRONBRIDGE CAPITAL II G.P. LTD","89 NEXUS WAY","","CAMANA BAY, GRAND CAYMAN","","Cayman Islands","KY1-9007","N","345 815 1407","","One of your branch offices or affiliates","RECORDS OF PRIVATE INVESTMENT FUNDS."
1050051,"CITCO FUND SERVICES (IRELAND) LIMITED","CUSTOM HOUSE PLAZA","BLOCK 6, INTERNATIONAL FINANCIAL SERVICES CENTRE","DUBLIN","","Ireland","DUBLIN 1","N","+353214836630","+353214836405","A third-party unaffiliated record keeper","CITCO FUND SERVICES (IRELAND)LIMITED IS THIRD PARTY ADMINISTRATOR FOR THE ZENSEN FUND."
1050051,"BNP PARIBAS SECURITIES SERVICES S.C.A., ACTING THROUGH ITS HONG KONG BRANCH","21/F, PCCW TOWER","979 KING'S ROAD","QUARRY BAY","","Hong kong","","N","+852 21086459","+852 25217653","A third-party unaffiliated record keeper","BNP PARIBAS SECURITIES SERVICES SCA ACTING THROUGH ITS HONG KONG BRANCH ACTS AS SUB-ADMINISTRATOR TO THE ARCUS JAPAN VALUE FUND AND ARCUS GENSEKI FUND."
1050051,"BNP PARIBAS FUND ADMINISTRATION SERVICES (CAYMAN) LIMITED","PO BOX 2003, GRAND PAVILION COMMERCIAL CENTRE","802 WEST BAY ROAD","GRAND CAYMAN","","Cayman Islands","KY1-1104","N","+3459497942","+3459498340","A third-party unaffiliated record keeper","BNP PARIBAS FUND ADMINISTRATION SERVICES (CAYMAN) LIMITED IS THE ADMINISTRATOR OF THE ARCUS JAPAN VALUE FUND AND ARCUS GENSEKI FUND."
1050051,"NORTHERN TRUST LUXEMBOURG MANAGEMENT COMPANY S.A.","6 RUE LOU HEMMER","","LUXEMBOURG","","Luxembourg","L-1748","N","+3522762221","+3522762221","A third-party unaffiliated record keeper","NORTHERN TRUST LUXEMBOURG MANAGEMENT COMPANY S.A. IS THE ADMINISTRATIVE AGENT, REGISTRAR AND TRANSFER AGENT AND CUSTODIAN OF ARCUS JAPAN FUND / ARCUS JAPAN LONG/SHORT FUND."
1050388,"VMS","300 CARNEGIE CENTER","SUITE 200","PRINCETON","NJ","United States","08540","N","6094308422","","A third-party unaffiliated record keeper","ALL BOOKS AND RECORDS RELATED TO FUND ADMINISTRATOR AND BOOKKEEPER FUNCTIONS"
1045829,"PRIVATE EQUITY ADMINISTRATORS","RIDDARGATAN 13, D","","STOCKHOLM","","Sweden","SE 114 51","N","46 855802660","","A third-party unaffiliated record keeper","ACCOUNTING AND BOOKKEEPING."
1050622,"SEI GLOBAL SERVICES INC.","1 FREEDOM VALLEY DRIVE","","OAKS","PA","United States","19456","N","610-676-1000","484-676-3694","A third-party unaffiliated record keeper","BOOKS AND RECORDS PRIMARILY INCLUDE INVESTOR SUBSCRIPTIONS, TRANSFER AND REDEMPTION DOCUMENTATION, INVESTOR AML DOCUMENTS, ACCOUNTING RECORDS IN SUPPORT OF THE CALCULATION OF EACH MONTH-END NAV, FINANCIAL RECORDS UTILIZED FOR THE PREPARATION OF YEAR-END FINANCIAL STATEMENTS AND AUDITED FINANCIAL STATEMENTS OF THE INDIVIDUAL FUNDS MANAGED BY EVERSEPT, DOCUMENTATION RELATED TO THE OPENING, ADMINISTRATION AND MAINTENANCE OF CUSTODY ACCOUNTS OF FUNDS MANAGED BY EVERSPET"
1050622,"FRANKEL LOUGHRAN STARR & VALLONE LLP","1475 FRANKLIN AVENUE","","GARDEN CITY","NY","United States","11530","N","516-874-8800","212-683-5121","A third-party unaffiliated record keeper","BOOKS AND RECORDS RELATED TO EVERSEPT PARTNERS, LLC AND EVERSEPT GP, LLC"
1053715,"HEDGESERV LIMITED","75 ST STEPHEN'S GREEN, 2ND FLOOR","","DUBLIN 2","","Ireland","","N","+3530123410 30","","A third-party unaffiliated record keeper","ACCOUNTING AND SHAREHOLDER RECORDS"
1044182,"WEIGHBRIDGE TRUST LIMITED","CHANNEL HOUSE","FOREST LANE","ST PETER PORT","","Guernsey","","N","+44 (0) 1481 7","","One of your branch offices or affiliates","CHIEF COMPLIANCE OFFICER LOCATED THERE, ADV AND COMPLIANCE PROCEDURES AND POLICIES/CODE OF ETHICS RECORDS."
1038844,"OPUS FUND SERVICES","500 E. DIEHL ROAD","SUITE 100","NAPERVILLE","IL","United States","60563","N","(312) 256-9974","","A third-party unaffiliated record keeper","GENERAL BOOKS AND RECORDS"
1042779,"PRIVATE EQUITY ADMINISTRATORS","RIDDARGATAN 13, D","","STOCKHOLM","","Sweden","SE 114 51","N","46 855802660","","A third-party unaffiliated record keeper","ACCOUNTING AND BOOKKEEPING."
1048063,"STILLWATER FUND SERVICES LLC","440 N WELLS ST","SUITE 420","CHICAGO","IL","United States","60654","N","3129521654","3128572024","A third-party unaffiliated record keeper","ALL ACCOUNTING RECORDS"
1048467,"T K SENG MANAGEMENT","36B HONG KONG STREET","HOLLY BUILDING","SINGAPORE","","Singapore","059675","N","65-6273-9793","","A third-party unaffiliated record keeper","ACCOUNTS AND RESOLUTIONS OF TOCCATA CAPITAL PTE. LTD."
1048467,"PORTCULLIS FUND ADMINISTRATION (S) PTE LTD","6 TEMASEK BOULEVARD #09-06","SUNTEC TOWER FOUR","SINGAPORE","","Singapore","038986","N","65-6496-0499","","A third-party unaffiliated record keeper","PORTCULLIS FUND ADMINISTRATION (S) PTE LTD IS THE FUND ADMINISTRATOR AND KEEPS AML/KYC DOCUMENTATION, ACCOUNTING RECORDS, AND OTHER DOCUMENTATION RELATED TO THE PRIVATE INVESTMENT FUND."
1051100,"CROWN DATA CENTRE 2","NO 1, LEUNG YIP STREET, YUEN LONG","NEW TERRITORIES","HONG KONG","","Hong kong","000000","N","+852 26368388","+85226371677","A third-party unaffiliated record keeper","RECORDS RELATING TO THE TRADING ACTIVITIES OF THE SEGANTII ASIA-PACIFIC EQUITY MULTI-STRATEGY FUND. SEGANTII CAPITAL MANAGEMENT LIMITED ACTS AS INVESTMENT ADVISER TO THE FUND."
1051100,"CROWN DATA CENTRE 3","NO. 23 TAK YIP STREET, YUEN LONG","NEW TERRITORIES","HONG KONG","","Hong kong","000000","N","+852 26368388","","A third-party unaffiliated record keeper","RECORDS RELATING TO TRADING ACTIVITIES OF THE SEGANTII ASIA-PACIFIC EQUITY MULTI-STRATEGY FUND. SEGANTII CAPITAL MANAGEMENT LIMITED ACTS AS INVESTMENT ADVISER TO THIS FUND."
1051100,"CROWN DATA CENTRE 1","NO 4-6 KIN FUNG CIRCUIT, TUEN MUN","NEW TERRITORIES","HONG KONG","","Hong kong","000000","N","+852 26368388","+85226371677","A third-party unaffiliated record keeper","RECORDS RELATING TO THE TRADING ACTIVITIES OF THE SEGANTII ASIA-PACIFIC EQUITY MULTI-STRATEGY FUND. SEGANTII CAPITAL MANAGEMENT LIMITED ACTS AS INVESTMENT ADVISER TO THE FUND."
1058663,"HEDGESERV (CAYMAN) LTD","P.O BOX 261","WILLOW HOUSE CRICKET SQUARE","GRAND CAYMAN","","Cayman Islands","KYI-1104","N","345 769 8120","","A third-party unaffiliated record keeper","HEDGESERV SERVES AS THE FUND ADMINISTRATOR FOR THE FIRM."
1058663,"HEDGESERV LIMITED","75 ST STEPHENS GREEN","2ND FLOOR","DUBLIN","","Ireland","2","N","+3531234 1000","","A third-party unaffiliated record keeper","HEDGESERV SERVES AS THE FUND ADMINISTRATOR FOR THE FIRM."
1058663,"HEDGESERV","1251 AVENUE OF THE AMERICAS","21ST FLOOR","NEW YORK","NY","United States","10020","N","212 920 3520","","A third-party unaffiliated record keeper","HEDGESERV SERVES AS THE FUND ADMINISTRATOR FOR THE FIRM."
1051113,"ACCORD CORPORATE SERVICES PTE LTD","11 COLLYER QUAY #06-06","ARCARD, THE","SINGAPORE","","Singapore","049317","N","+65 62208284","","A third-party unaffiliated record keeper","STATUTORY RECORDS TO BE MAINTAINED SO AS TO COMPLY WITH THE SINGAPORE COMPANIES ACT AND ACCOUNTABLE TO THE ACCOUNTING AND CORPORATE REGULATORY. AUTHORITY (ACRA)"
1045026,"IRON MOUNTAIN","WHITELAW HOUSE","MACMILLAN ROAD","LOVINGSTON","","United Kingdom","EH547DF","N","00 44 207 1500","","A third-party unaffiliated record keeper","RECORDS OVER 12 MONTHS OLD"
1057517,"IDS GMBH-ANALYSIS AND REPORTING SERVICES","KONIGINSTRASSE 28","","MUNICH","","Germany","80802","N","4989380015130","","One of your branch offices or affiliates","CLIENT PERFORMANCE AND ANALYSIS RECORDS"
1057517,"ALLIANZ GLOBAL INVESTORS U.S. LLC","555 MISSION STREET","SUITE 1700","SAN FRANCISCO","CA","United States","94105","N","4159545400","4159548200","One of your branch offices or affiliates","CLIENT RECORDS AND CORPORATE DOCUMENTS"
1057517,"RECALL TOTAL INFORMATION MANAGEMENT","10901 BIGGIE STREET","","SAN LEANDRO","CA","United States","94577-1122","N","5106335600","","A third-party unaffiliated record keeper","OFFSITE STORAGE FACILITY FOR FIRM BOOKS AND RECORDS"
1057517,"THE NORTHERN TRUST COMPANY","50 S. LASALLE ST.","","CHICAGO","IL","United States","60603","N","312-630-6000","","A third-party unaffiliated record keeper","CLIENT RECORDS AT BACK OFFICE SERVICE PROVIDER"
1057517,"IO DATA CENTERS, LLC","615 NORTH 48TH STREET","","PHOENIX","AZ","United States","85008","N","4159545400","","A third-party unaffiliated record keeper","DATA SERVERS"
1057517,"IO DATA CENTERS, LLC","3003 WOODBRIDGE AVE","","EDISON","NJ","United States","08837","N","415-954-5400","","A third-party unaffiliated record keeper","DATA SERVERS"
1057517,"AUTONOMY, INC","ONE MARKET STREET, SPEAR TOWER, 19TH FLOOR","","SAN FRANCISCO","CA","United States","94105","N","415-243-9955","","A third-party unaffiliated record keeper","ARCHIVE STORAGE FACILITY MAINTAINS ELECTRONIC COMMUNICATION RECORDS."
1054808,"STEAMBOAT VENTURES","801 NORTH BRAND BLVD., #665","","GLENDALE","CA","United States","91203","N","818-553-7900","818-553-7628","One of your branch offices or affiliates","VARIOUS BOOKS AND RECORDS REQUIRED TO BE KEPT."
1040180,"CIM GLOBAL BUSINESS","LES CASADES","EDITH CAVELL STREET","PORT-LOUIS","","Mauritius","","N","2302129800","2302129833","A third-party unaffiliated record keeper","COPORATE/STATUTORY DOCUMENTATION OF THE FIRM SUCH AS MINUTE BOOKS, REGISTER OF MEMBERS AND REGISTER OF DIRECTORS."
1051220,"CITCO FUND SERVICES (IRELAND) LIMITED","TELLENGANA HOUSE","","CORK","","Ireland","","N","+3530215005143","","Other","THE FIRM ACTS AS ADMINISTRATOR TO THE PRIVATE FUND. ""CITCO IS THE INDEPENDENT FUND ADMINISTRATOR TO THE PRIVATE FUNDS ADVISED BY TOWER HOUSE PARTNERS LLP AND MAINTAINS CERTAIN OF THE PRIVATE FUNDS' ACCOUNTING BOOKS AND RECORDS."""
1041955,"CITCO FUND SERVICES (LUXEMBOURG) S.A.","CARRE BONN, 20, RUE DE LA POSTE","L-2346","LUXEMBOURG","","Luxembourg","L-2012","N","+352 260 236 4","+352 260 236 4","A third-party unaffiliated record keeper","CITCO FUND SERVICES (LUXEMBOURG) S.A. IS THE INDEPENDENT FUND ADMINISTRATOR TO THE CLIENTS ADVISED BY LCM CAPITAL LLP AND MAINTAINS CERTAIN OF THE CLIENTS' ACCOUNTING BOOKS AND RECORDS."
1052692,"CENTAUR FUND SERVICES","2 CUSTOM HOUSE PLAZA","IFSC","DUBLIN","","Ireland","D01 V9V4","N","353 1 899 2400","353 1 899 2499","A third-party unaffiliated record keeper","ADMINISTRATIVE RECORDS"
1052692,"ANTHONY WARD THOMAS","141 ACTON LANE","","LONDON","","United Kingdom","NW10 7PB","N","442070380449","","A third-party unaffiliated record keeper","ARCHIVE TRADING FILES AND COMPANY INVOICES"
1026985,"ELIAN FUND SERVICES (JERSEY) LIMITED","44 THE ESPLANADE","","ST HELIER","","Jersey","JE4 9WG","N","441534504000","441534504444","A third-party unaffiliated record keeper","CERTAIN BOOKS AND RECORDS RELATED TO  ADP I GP LIMITED AND ADP I LP."
1026985,"INTERNATIONAL FINANCIAL SERVICES LIMITED","IFS COURT, BANK STREET","TWENTYEIGHT, CYBERCITY","EBENE","","Mauritius","72201","N","2304673000","2304674000","A third-party unaffiliated record keeper","CERTAIN BOOKS AND RECORDS RELATED TO DPI MNANAGEMENT LTD AND AFRICAN DEVELOPMENT PARTNERS I LLC."
1026985,"AUGENTIUS (GUERNSEY) LIMITED","CARINTHIA HOUSE","9-12 THE GRANGE","ST PETER PORT","","Guernsey","GY1 4BF","N","441481734300","441481734301","A third-party unaffiliated record keeper","CERTAIN BOOKS AND RECORDS RELATED TO ADP II GP LIMITED AND AFRICAN DEVELOPMENT PARTNERS II L.P."
1058256,"GLOBAL RELAY COMMUNICATIONS INC.","286 MADISON AVENUE, 7TH FLOOR","SUITE 901","NEW YORK","FL","United States","33431","N","866-484-6630","212-504-3163","A third-party unaffiliated record keeper","EMAIL ARCHIVING"
1058256,"MORGAN STANLEY FUND SERVICES","2000 WESTCHESTER AVENUE","1ST FLOOR","PURCHASE","NY","United States","10577","N","914-225-8885","","Other","FUND BOOKS AND RECORDS"
1058256,"LOCKE LORD LLP","525 OKEECHOBEE BOULEVARD","SUITE 1600","WEST PALM BEACH","FL","United States","33401","N","561-820-0242","561-655-8719","A third-party unaffiliated record keeper","FIRM COUNSEL"
1050256,"ABOGADO PTE LTD","8 MARINA BOULEVARD #05-02","MARINA BAY FINANCIAL CENTRE TOWER 1","SINGAPORE","","Singapore","018981","N","+65 6338 1888","+65 6337 5100","A third-party unaffiliated record keeper","MINUTE BOOKS AND STATUTORY REGISTERS"
1047422,"OGAM LTD.","130 ADELAIDE STREET W.","SUITE 3000","TORONTO","","Canada","","N","416 603 8788","416 603 8388","One of your branch offices or affiliates","ACCOUNTING RECORDS"
1049406,"DST INVESTMENT MANAGEMENT LIMITED","67F, IFC 2","8 FINANCE STREET","HONG KONG","","Hong kong","","N","+852 3447 3360","+852 3447 3389","A third-party unaffiliated record keeper","SUBSCRIPTION DOCUMENTS AND DUE DILIGENCE ON SUBSCRIBERS."
1049406,"C/O TULLOCH & CO","4 HILL STREET","","LONDON","","United Kingdom","W1J 5NE","N","+442073181180","+442073181150","A third-party unaffiliated record keeper","COMPANY BOOKS, SUBSCRIPTION DOCUMENTS AND DUE DILIGENCE ON THE SUBSCRIBERS."
1051938,"STATE STREET BANK AND TRUST COMPANY","2 AVENUE DE LAFAYETTE","","BOSTON","MA","United States","02111","N","617-664-9566","","Other","PRIVATE FUNDS"
1051938,"RECALL LIMITED","20 WINSLOW STREET, HUNG HOM","","HONG KONG","","Hong kong","","N","25112829","25114333","A third-party unaffiliated record keeper","CLIENTS CDD DOCUMENTS"
1051938,"RBC INVESTOR SERVICES HONG KONG LIMITED","51F, CENTRAL PLAZA, 18 HARBOUR ROAD, WANCHAI, HONG","","HONG KONG","","Hong kong","","N","852-28681309","","Other","THIS IS A THIRD - PARTY ADMINISTRATOR WHICH KEEPS ALLL INVESTORS DOCUMENTS EXCEPT THE CLIENT AGREEMENTS."
1051938,"CONSEC SERVICES LIMITED","ROOM 409, 4/F NAN FUNG TOWER","88 CONNAUGHT ROAD CENTRAL","HONG KONG","","Hong kong","","N","852 2738 1411","852 2730 4379","Other","THE MINUTE BOOKS OF AIFML ARE KEPT AT THE ABOVE ADDRESS"
1051938,"ABERDEEN ASSET MANAGEMENT PLC","10 QUEENS TERRACE","","ABERDEEN","","United Kingdom","AB10 1YG","N","441224631999","","One of your branch offices or affiliates","PARENT COMPANY AND MAY MAINTAIN SOME BOOKS AND RECORDS FOR THE REGISTRANT"
1051938,"ABERDEEN ASSET MANAGEMENT PLC","BOW BELLS HOUSE","1 BREAD STREET","LONDON","","United Kingdom","EC4M 9HH","N","442074636000","","One of your branch offices or affiliates","PARENT COMPANY AND MAY MAINTAIN SOME BOOKS AND RECORDS FOR THE REGISTRANT"
1051938,"IRON MOUNTAIN","2500 HENDERSON DRIVE","","SHARON HILL","PA","United States","19079","N","215-633-0525","","A third-party unaffiliated record keeper","PRIMARY ARCHIVING SERVICE FOR THE REGISTRANT"
1051938,"TERRANUA U.S. CORP. (MYCOMPLIANCE OFFICE)","533 FIFTH AVENUE, 4TH FLOOR","","NEW YORK","NY","United States","10017","N","1-866-951-2280","","A third-party unaffiliated record keeper","COMPLIANCE REPORTS"
1051938,"SWORD","120 ALDERSGATE STREET","","LONDON","","United Kingdom","EC1A 4JQ","N","011 44 20 7539","","A third-party unaffiliated record keeper","ENTERPRISE RISK MANAGEMENT SOFTWARE"
1051938,"SALESFORCE","THE LANDMARK @ ONE MARKET","SUITE 300","SAN FRANCISCO","CA","United States","94105","N","415-901-7000","","Other","CUSTOMER RELATIONSHIP MANAGEMENT SOFTWARE"
1051938,"CISCO RECALL TOTAL INFORMATION MANAGEMENT PTE. LTD.","2 YUNG HO ROAD","CISCO RECALL CENTRE","SINGAPORE","","Singapore","618594","N","65-62625622","","Other","PRIMARY ARCHIVING SERVICE FOR THE REGISTRANT"
1051938,"ABERDEEN ASSET MANAGEMENT ASIA LIMITED","21 CHURCH STREET","#01-01 CAPITAL SQUARE TWO","SINGAPORE","","Singapore","049480","N","6563952700","6566322996","One of your branch offices or affiliates","MAY HAVE ORIGINAL CLIENT CONTRACTS OR OTHER CLIENT DOCUMENTATION"
1051938,"BNP PARIBAS SECURITIES SERVICES","9, RUE DU DEBARCADERE","","PANTIN","","France","93500","N","+33 141428300","","A third-party unaffiliated record keeper","BNP IS ABERDEEN GROUP'S PRIMARY ADMINISTRATOR. BNP MAINTAINS BROKER CONFIRMATIONS AND TRADE DETAILS."
1051938,"INSTITUTIONAL SHAREHOLDER SERVICES, INC.","2099 GAITHER ROAD","SUITE 501","ROCKVILLE","MD","United States","20850","N","301-556-0500","","A third-party unaffiliated record keeper","PROXY VOTING RECORDS MAINTAINED FOR THE REGISTRANT"
1051938,"ABERDEEN ASSET MANAGEMENT INC","712 5TH AVENUE, 49TH FLOOR","","NEW YORK","NY","United States","10019","N","212-776-1170","","One of your branch offices or affiliates","AFFILIATE AND MAY MAINTAIN SOME BOOKS AND RECORDS FOR THE REGISTRANT"
1051938,"ABERDEEN ASSET MANAGEMENT INC","1735 MARKET ST #32","","PHILADELPHIA","PA","United States","19103","N","215-405-5700","","One of your branch offices or affiliates","AFFILIATE AND MAY MAINTAIN SOME BOOKS AND RECORDS FOR THE REGISTRANT"
1051938,"ABERDEEN ASSET MANAGEMENT PLC","1 UNION WYND","UNION PLAZA 4TH FLOOR","ABERDEEN","","United Kingdom","AB10 1SL","N","+44 1224 631 9","","One of your branch offices or affiliates","ABERDEEN ASSET MANAGEMENT PLC IS THE PARENT COMPANY AND MAY MAINTAIN SOME BOOKS AND RECORDS FOR THE REGISTRANT"
1051938,"ABERDEEN ASSET MANAGEMENT PLC","40 PRINCES STREET","","EDINBURGH","","United Kingdom","EH2 2BY","N","44 131 528 400","","One of your branch offices or affiliates","ABERDEEN ASSET MANAGEMENT PLC IS THE PARENT COMPANY AND MAY MAINTAIN SOME BOOKS AND RECORDS FOR THE REGISTRANT"
1051938,"ABERDEEN ASSET MANAGEMENT PLC","EDINBURGH ONE","60 MORRISON STREET","EDINBURGH","","United Kingdom","EH3 8BE","N","+44 131 655510","","One of your branch offices or affiliates","ABERDEEN ASSET MANAGEMENT PLC IS THE PARENT COMPANY AND MAY MAINTAIN SOME BOOKS AND RECORDS FOR THE REGISTRANT"
1051938,"ABERDEEN ASSET MANAGEMENT LTD.","LEVEL 10, 255 GEORGE STREET","","SYDNEY","","Australia","2000","N","612-9950-2888","612-9950-280","One of your branch offices or affiliates","AFFILIATE AND MAY MAINTAIN SOME BOOKS AND RECORDS FOR THE REGISTRANT"
1050843,"CITCO CORPORATE SERVICES (IRELAND) LIMITED","CUSTOM HOUSE PLAZA BLOCK 6","INTERNATIONAL FINANCIAL SERVICES CENTRE","DUBLIN","","Ireland","DUBLIN 1","N","+353 1 6367810","+353 1 6367801","A third-party unaffiliated record keeper","GENERAL ADMINISTRATIVE FILES, COPIES OF CORPORATE AND ORGANIZATIONAL DOCUMENTS, DOCUMENTS RELATING TO INVESTMENTS, COMPUTATION OF REGULATORY ASSETS UNDER MANAGEMENT, PORTFOLIO COMPANIES, AFFILIATED COMPANIES AND PRIVATE FUNDS."
1044007,"LEVERPOINT MANAGEMENT, LLC","5 MAXWELL DRIVE","SUITE #135","CLIFTON PARK","NY","United States","12065","N","518-373-5500","","A third-party unaffiliated record keeper","BOOKS AND RECORDS ASSOCIATED WITH PRIVATE FUND MANAGED BY REGISTRANT."
1050561,"APPLEBY","22 VICTORIA STREET","","HAMILTON","","Bermuda","HMEX","N","441 2952244","441 2928666","A third-party unaffiliated record keeper","OFFICIAL BOOKS AND RECORDS, BOARD MEETING MINUTES"
1043331,"ACTINVER WEALTH MAN","5075 WESTHEIMER","SUITE 650","HOUSTON","TX","United States","77056","N","713-885-9843","713-885-9849","One of your branch offices or affiliates","FUND DOCUMENTS, CLIENT RECORDS, ACCOUNTING, INVESTOR INFORMATION"
1041727,"SS&C TECHNOLOGIES, INC.","80 LAMBERTON ROAD","","WINDSOR","CT","United States","06095","N","8602984500","8602984500","A third-party unaffiliated record keeper","SS&C TECHNOLOGIES, INC. IS THE INDEPENDENT FUND ADMINISTRATOR TO THE PRIVATE FUNDS ADVISED BY COALESCENCE PARTNERS INVESTMENT MANAGEMENT, LP AND MAINTAINS CERTAIN OF THE PRIVATE FUNDS' ACCOUNTING BOOKS AND RECORDS."
1051170,"EAGLE EQUITY HOLDINGS, LLC","1706 NE 10TH TERRACE","SUITE 1","CAPE CORAL","FL","United States","33909","N","732-233-7358","239-458-8883","One of your branch offices or affiliates","BANKING RECORDS; PROFIT/LOSS RECORDS AND ALL ACCOUNTING RECORDS"
1045262,"PEF SERVICES LLC","300 EXECUTIVE DRIVE","SUITE 150","WEST ORGANGE","NJ","United States","07052","N","9737958610","","A third-party unaffiliated record keeper","PEF SERVICES IS A THIRD PARTY FUND ADMINISTRATOR WHO ASSIST WITH THE ACCOUNTING AND RECORD KEEPING FOR THE PRIVATE FUNDS MANAGED BY FEF MANAGEMENT SERVICES LLC AND OTHER RELYING ADVISERS"
1031422,"CDH INVESTMENTS MANAGEMENT (HONG KONG) LIMITED","1503 LEVEL 15, INTERNATIONAL COMMERCE CENTRE","1 AUSTIN ROAD WEST","HONG KONG","","China","","N","852 35188000","852 28107083","One of your branch offices or affiliates","ACCOUNTING BOOKS AND RECORDS"
1031422,"ABOGADO PTE LTD","8 MARINA BOULEVARD #05-02","MARINA BAY FINANCIAL CENTRE TOWER 1","SINGAPORE","","Singapore","018981","N","65 63381888","65 63375100","A third-party unaffiliated record keeper","CORPORATE BOOKS AND RECORDS ARE KEPT IN THE COMPANY SECRETARY'S OFFICE"
1050336,"IRON MOUNTAIN","NORMAN ROAD","PICKARDY MANOR WAY","BELVEDERE, KENT","","United Kingdom","DA17 6JY","N","+44800270270","","A third-party unaffiliated record keeper","CERTAIN BOOKS & RECORDS AS REQUIRED UNDER RULE 204-2 OF THE ADVISERS ACT."
1050432,"GORDIAN COMPLIANCE SOLUTIONS","235 MONTGOMERY STREET","SUITE 1120","SAN FRANCISCO","CA","United States","94104","N","415-762-2845","","A third-party unaffiliated record keeper","RECORDS RELATING TO COMPLIANCE PROGRAM"
1044457,"BUSINESS RECORDS MANAGEMENT","1018 WESTERN AVENUE","","PITTSBURGH","PA","United States","15233-2024","N","412-321-0505","412-321-0305","A third-party unaffiliated record keeper","DUE DILIGENCE AND PORTFOLIO COMPANY RECORDS AND CLIENT FILES."
1044457,"ZANTAZ INC.","5758 WEST LAS POSITAS BLVD.","","PLEASANTON","CA","United States","94588","N","(415) 243-9955","","A third-party unaffiliated record keeper","EMAIL RECORDS AND ELECTRONIC MESSAGING SYSTEM RECORDS."
1044457,"SMARSH, INC.","921 SW WASHINGTON STREET, 6TH FLOOR","","PORTLAND","OR","United States","97205","N","(503) 946-5980","","A third-party unaffiliated record keeper","EMAIL RECORDS AND ELECTRONIC MESSAGING SYSTEM RECORDS."
1044457,"PNC BANK NATIONAL ASSOCIATION","ONE PNC PLAZA, 249 FIFTH AVENUE, 6TH FLOOR","","PITTSBURGH","PA","United States","15222-2707","N","(412) 467-1507","(412) 762-4157","One of your branch offices or affiliates","CORPORATE AND COMPLIANCE RECORDS"
1052717,"CITCO FUND SERVICES (IRELAND) LIMITED","TELLENGANA HOUSE","","CORK","","Ireland","","N","+3530215005143","","Other","THE FIRM ACTS AS ADMINISTRATOR TO THE PRIVATE FUND. ""CITCO IS THE INDEPENDENT FUND ADMINISTRATOR TO THE PRIVATE FUNDS ADVISED BY TOWER HOUSE PARTNERS LLP AND MAINTAINS CERTAIN OF THE PRIVATE FUNDS' ACCOUNTING BOOKS AND RECORDS."""
1056860,"CITCO (CANADA) INC.","2 BLOOR STREET EAST, SUITE 2700","","TORONTO, ONTARIO","","Canada","M4W 1A8","N","416-966-9200","416-966-9210","A third-party unaffiliated record keeper","IN ITS CAPACITY AS THIRD-PARTY ADMINISTRATOR FOR THE ADVISORY CLIENTS OF O.S.S. CAPITAL MANAGEMENT LP, CITCO (CANADA) INC. MAINTAINS CERTAIN BOOKS AND RECORDS FOR THE FUNDS."
1056860,"CITCO FUND SERVICES (CAYMAN ISLANDS) LIMITED","WINDWARD 1, 2ND FLOOR","REGATTA OFFICE PARK, WEST BAY ROAD","GRAND CAYMAN","","Cayman Islands","KY1-1205","N","345-949-3977","345-949-3877","A third-party unaffiliated record keeper","IN ITS CAPACITY AS THIRD-PARTY ADMINISTRATOR FOR THE ADVISORY CLIENTS OF O.S.S. CAPITAL MANAGEMENT LP, CITCO FUND SERVICES (CAYMAN ISLANDS) LIMITED MAINTAINS CERTAIN BOOKS AND RECORDS FOR CERTAIN OF THE FUNDS."
1056860,"QUEENSGATE BANK & TRUST COMPANY LTD.","QUEENSGATE HOUSE, 113 SOUTH CHURCH STREET","GEORGE TOWN","GRAND CAYMAN","","Cayman Islands","","N","345-945-2187","345-945-2197","Other","QUEENSGATE BANK & TRUST COMPANY LTD. (""QUEENSGATE"") IS THE REGISTERED OFFICE OF THE INDEPENDENT DIRECTORS OF THE OFFSHORE FUNDS.  QUEENSGATE MAINTAINS CERTAIN BOOKS AND RECORDS RELATING TO THE OFFSHORE FUNDS INCLUDING, BUT NOT LIMITED TO, DIRECTORS' RESOLUTIONS AND MEETING MINUTES."
1056860,"INTERTRUST CORPORATE SERVICES (CAYMAN) LIMITED","190 ELGIN AVENUE","","GRAND CAYMAN","","Cayman Islands","KY1-9005","N","345-943-3100","345-945-4757","Other","INTERTRUST CORPORATE SERVICES (CAYMAN) LIMITED (""INTERTRUST"") IS THE REGISTERED OFFICE OF THE OFFSHORE FUNDS.  INTERTRUST MAINTAINS CERTAIN BOOKS AND RECORDS RELATING TO THE OFFSHORE FUNDS."
1050950,"CIBC CAYMAN","11 DR. ROY'S DRIVE","P.O. BOX 694","GRAND CAYMAN","","Cayman Islands","","N","345 949-8666","","Other","CIBC CAYMAN MAINTAINS THE ACCOUNTING RECORDS FOR CERTAIN OF PHOENICIAN'S CLIENTS. SHADOW ACCOUNTING RECORDS ARE MAINTAINED AT PHOENICIAN'S OFFICE."
1040308,"MAITLAND ADMINISTRATION US LLC","295 MADISON AVENUE","","NEW YORK","NY","United States","10017","N","6465326694","","A third-party unaffiliated record keeper","ALL FUND DOCUMENTS, FUND BANK ACCOUNT INFORMATION, AND INVESTOR INFORMATION AND DOCUMENTS."
1039785,"UMB FUND SERVICES","2225 WASHINGTON BLVD.","SUITE 300","OGDEN","UT","United States","84401","N","(801) 737-4000","","A third-party unaffiliated record keeper","FINANCIAL, ACCOUNTING AND INVESTOR RECORDS FOR THE PRIVATE INVESTMENT FUND MANAGED BY THE REGISTRANT."
1047424,"CITY ARCHIVES","499 MILL ROAD","","EDISON","NJ","United States","08837","N","888-CITYSIDE","732-429-1656","A third-party unaffiliated record keeper","OFFSITE STORAGE FACILITY WHICH HOUSES A HARD COPY OF THE FIRM'S BOOKS AND RECORDS."
1047424,"PARSSIPANY II DATA CENTER","200 WEBRO RD","","PARSIPPANY","NJ","United States","07054","N","800-638-6336","973-590-5000","A third-party unaffiliated record keeper","PROVIDES BACK-UP AND STORAGE OF ALL THE FIRM'S ELECTRONIC DATA."
1048192,"MG STOVER & CO.","1350 17TH STREET","SUITE 200","DENVER","CO","United States","80202-1525","N","(303) 410-4400","(303) 648-4864","A third-party unaffiliated record keeper","PRINCIPAL LOCATION OF ACCOUNTING RECORDS AND GENERAL LEDGER"
1049906,"MAPLES CORPORATE SERVICES LIMITED","UGLAND HOUSE","","GRAND CAYMAN","","Cayman Islands","KY1-1104","N","+1 345 9498066","+1 345 9498080","A third-party unaffiliated record keeper","CORPORATE BOOKS AND CONSTITUTIONAL DOCUMENTS OF LIWA CAPITAL ADVISORS LTD. AND ITS SHAREHOLDER."
1057881,"SCHONFELD TOOLS LLC","3500 SUNRISE HIGHWAY","","GREAT RIVER","NY","United States","11739","N","212-832-0900","","One of your branch offices or affiliates","ADMINISTRATIVE AND FINANCIAL BOOKS AND RECORDS OF THE APPLICANT; TRANSACTIONAL BOOKS AND RECORDS OF PRIVATE INVESTMENT FUNDS"
1057881,"GLOBEOP FINANCIAL SERVICES LLC","156 W 5TH STREET","","NEW YORK","NY","United States","10019","N","212-319-9730","212-319-7690","A third-party unaffiliated record keeper","PRIVATE INVESTMENT FUND BOOKS AND RECORDS TO BE MAINTAINED BY ADMINISTRATOR"
1057881,"GLOBAL RELAY COMMINCATIONS INC.","220 CAMBIE STREET","","VANCOUVER","","Canada","V6B 2M9","N","866-484-6630","","A third-party unaffiliated record keeper","BACK-UP OF ELECTRONIC CORRESPONDENCE OF THE APPLICANT"
1047823,"CITCO FUND SERVICES (SAN FRANCISCO), INC.","560 MISSION STREET, 26TH FLOOR","","SAN FRANCISCO","CA","United States","94105","N","415.228.0390","415.228.0335","A third-party unaffiliated record keeper","FINANCIAL STATEMENTS AND SUPPORTING DOCUMENT AND BOOKS AND RECORDS NECESSARY TO CALCULATE NET ASSET VALUE OF THE PARTNERSHIP AND EACH INVESTOR HOLDINGS."
1047823,"CITCO (CANADA) INC.","2 BLOOR STREET EAST, SUITE 2700","","TORONTO","","Canada","M4W 1A8","N","416.966.9200","416.966.9210","A third-party unaffiliated record keeper","MAINTAINING A REGISTER OF INVESTORS; DOCUMENTS NECESSARY FOR ISSUANCE, TRANSFER AND INVESTOR WITHDRAWAL REQUESTS; UNAUDITED INVESTOR STATEMENTS; AND PARTNERSHIP FINANCIAL STATEMENTS."
1052222,"SS&C FUND SERVICES (CAYMAN) LTD.","45 MARKET STREET","SUITE 3205, 2ND FLOOR, GARDENIA COURT, CAMANA BAY","GRAND CAYMAN","","Cayman Islands","KY1-9003","N","345-943-3330","","A third-party unaffiliated record keeper","FUND-RELATED BOOKS AND RECORDS."
1052222,"INTERNATIONAL FUND SERVICES (IRELAND) LIMITED","78 SIR JOHN ROGERSON'S QUAY","","DUBLIN","","Ireland","","N","35(0)317075000","35(0)317075100","A third-party unaffiliated record keeper","FUND-RELATED BOOKS AND RECORDS"
1046487,"KARMEL CAPITAL LLC","2330 COUSTEAU COURT","","VISTA","CA","United States","92081","N","858-208-3588","","One of your branch offices or affiliates","FINANCIAL RECORDS AND LEGAL DOCUMENTS"
1047649,"IKONIC FUND SERVICES","15801 JOHN J. DELANEY DRIVE,","SUITE 540","CHARLOTTE","NC","United States","28277","N","704.927.1859","704.927.1879","A third-party unaffiliated record keeper","CERTAIN RECORDS OF OUR PRIVATE FUNDS ARE MAINTAINED AT THIS ADDRESS."
1046528,"INVESTEC ASSET MANAGEMENT LIMITED","WOOLGATE EXCHANGE","25 BASINGHALL STREET","LONDON","","United Kingdom","EC2V 5HA","N","00442075972000","00442075972001","One of your branch offices or affiliates","PORTFOLIO HOLDINGS, TRADING RECORDS AND MARKETING DOCUMENTS"
1044593,"PANOPTIC FUND SERVICES","2400 BROADWAY","SUITE 220","SANTA MONICA","CA","United States","90404","N","(310) 573-8520","(310) 573-8315","A third-party unaffiliated record keeper","FUND BOOKS AND RECORDS"
1044593,"CONSTELLATION ADVISERS, LLC","1212 AVENUE OF THE AMERICAS","9TH FLOOR","NEW YORK","NY","United States","10036","N","212-300-6250","212-300-7849","A third-party unaffiliated record keeper","MANAGEMENT COMPANY BOOKS AND RECORDS"
1044593,"CAS INVESTMENT PARTNERS, LLC","1745 BROADWAY","17TH FLOOR","NEW YORK","NY","United States","10019","N","212-804-7660","","One of your branch offices or affiliates","CERTAIN MANAGEMENT COMPANY BOOKS AND RECORDS."
1047588,"SWIGEL CAPITAL MANAGEMENT LLC","16301 NE 8TH ST.","SUITE 161","BELLEVUE","WA","United States","98008-3962","N","4255027521","","One of your branch offices or affiliates","CASH JOURNAL, FINANCIAL STATEMENTS,INCOME AND EXPENSE ACCOUNT RECORDS,ORIGINAL BILLS/RECEIPTS, INTERNAL AUDIT PAPERWORK, DISCRETIONARY ACCOUNT RECORDS, SEPARATE CLIENT ACCOUNT LEDGERS, ALL WRITTEN AGREEMENTS, ALL WRITTEN AND ELECTRONIC CLIENT COMMUNICATION, ALL FUND OFFERING DOCUMENTS, ALL ADVISER LLC DOCUMENTS AND CONTACT INFO."
1041958,"LEVERPOINT MANAGEMENT LLC","5 MAXWELL DRIVER","SUITE 135","CLIFTON PARK","NY","United States","12065","N","(518) 373-5500","","A third-party unaffiliated record keeper","FULL FINANCIAL STATEMENTS, PAYROLL, AND ACCOUNT PAYABLE INFORMATION"
1047795,"SS&C TECNOLOGIES, INC","80 LAMBERTON ROAD","","WINDSOR","CT","United States","06095","N","800-234-0556","","A third-party unaffiliated record keeper","ADMINISTRATION RECORDS"
1049254,"SEI INVESTMENTS","1 FREEDOM VALLEY DRIVE","","OAKS","PA","United States","19456","N","610-676-1000","484-676-3694","A third-party unaffiliated record keeper","BOOKS AND RECORDS PRIMARILY INCLUDE INVESTOR SUBSCRIPTIONS, TRANSFER AND REDEMPTION DOCUMENTATION, INVESTOR AML DOCUMENTS, ACCOUNTING RECORDS IN SUPPORT OF THE CALCULATION OF EACH MONTH-END NAV, FINANCIAL RECORDS UTILIZED FOR THE PREPARATION OF YEAR-END FINANCIAL STATEMENTS AND AUDITED FINANCIAL STATEMENTS OF THE INDIVIDUAL FUNDS MANAGED BY EVERSEPT, DOCUMENTATION RELATED TO THE OPENING, ADMINISTRATION AND MAINTENANCE OF CUSTODY ACCOUNTS OF FUNDS MANAGED BY EVERSPET"
1049254,"FRANKEL LOUGHRAN STARR & VALLONE LLP","1475 FRANKLIN AVENUE","","GARDEN CITY","NY","United States","11530","N","516-874-8800","212-683-5121","A third-party unaffiliated record keeper","BOOKS AND RECORDS RELATED TO EVERSEPT PARTNERS, LLC AND EVERSEPT GP, LLC"
1054870,"BNY MELLON FUND SERVICES (IRELAND) LIMITED","GUILD HOUSE","GUILD STREET, IFSC","DUBLIN","","Ireland","1","N","+ 353 15427920","","A third-party unaffiliated record keeper","THIRD PARTY ADMINISTRATOR. THE ABOVE NAMED THIRD-PARTY ADMINISTRATOR IS THE PRIMARY BOOKS OF RECORD AND INCLUDES RECORDS IN RELATION TO ANTI-MONEY LAUNDERING IDENTIFICATION VERIFICATION DOCUMENTS CONCERNING THE INVESTORS IN THE FUNDS"
1048224,"XIO (UK) LLP","SUITE 1502","32 LONDON BRIDGE STREET","LONDON","","United Kingdom","SE1 9SG","N","+44 2036081278","","One of your branch offices or affiliates","RELEVANT DOCUMENTATION IN RESPECT OF THE XIO SKY LP"
1052244,"SS&C FUND SERVICES (CAYMAN) LTD.","45 MARKET STREET, SUITE 3205, 2ND FLOOR","GARDENIA COURT, CAMANA BAY","GRAND CAYMAN","","Cayman Islands","KY1-9003","N","345-943-3330","","A third-party unaffiliated record keeper","FUND-RELATED BOOKS AND RECORDS."
1052244,"CAPULA INVESTMENT MANAGEMENT LLP","8 LANCELOT PLACE","","LONDON","","United Kingdom","SW7 1DR","N","4420-7071-0900","","One of your branch offices or affiliates","CERTAIN CAPULA INVESTMENT JAPAN LIMITED BOOKS AND RECORDS."
1046273,"GERVAN BIZ PTE. LTD.","138 CECIL STREET","#12-01A CECIL COURT","SINGAPORE","","Singapore","069538","N","+65 6534 0181","","A third-party unaffiliated record keeper","STATUTORY BOOKS AND RECORDS"
1046273,"MAITLAND ADMINISTRATION LTD.","30 DAMASCUS ROAD","SUITE 202","BEDFORD, NOVA SCOTIA","","Canada","B4A 0C1","N","902 442 9450","345 949 0705","A third-party unaffiliated record keeper","MAITLAND ACTS AS ADMINISTRATOR TO PRIVATE FUNDS AND HOLDS ACCOUNTING AND INVESTOR RECORDS, AML DOCUMENTATION AND SUBSCRIPTION DOCUMENTS."
1054073,"BARING NORTH AMERICA LLC","INDEPENDENCE WHARF","470 ATLANTIC AVENUE","BOSTON","MA","United States","02210","N","617-946-5200","","One of your branch offices or affiliates","BARING NORTH AMERICA LLC MAINTAINS CERTAIN BOOKS AND RECORDS RELATING TO A FEW CLIENTS OF BARING ASSET MANAGEMENT LIMITED."
1054073,"RESTORE PLC","8 BEAM REACH","COLDHARBOUR LANE","RAINHAM ESSEX","","United Kingdom","RM13 9YB","N","01708 527 600","01708 527651","A third-party unaffiliated record keeper","RESTORE PLC IS USED TO RETAIN CERTAIN BOOKS AND RECORDS THAT ARE NO LONGER REQUIRED TO BE KEPT ON-SITE.  SUCH BOOKS AND RECORDS ARE ARCHIVED AT RESTORE PLC."
1054073,"INSTITUTIONAL SHAREHOLDER SERVICES","702 KING FARM BOULEVARD","SUITE 400","ROCKVILLE","MD","United States","20850-4045","N","405.366.5101","405.366.5050","A third-party unaffiliated record keeper","CERTAIN BOOKS AND RECORDS RELATING TO APPLICANT'S PROXY VOTING ACTIVITIES ARE MAINTAINED BY INSTITUTIONAL SHAREHOLDER SERVICES"
1054073,"BARING ASSET MANAGEMENT (ASIA) LIMITED","19/F EDINBURGH TOWER, 15 QUEEN'S ROAD","THE LANDMARK","HONG KONG","","China","","N","852-2841-1411","852-2845-9050","One of your branch offices or affiliates","BARING ASSET MANAGEMENT (ASIA) LIMITED MAINTAINS CERTAIN BOOKS AND RECORDS RELATING TO CERTAIN TRADE ACTIVITY UNDERTAKEN."
1058323,"BT DATA CENTRE","8/F WARWICK HOUSE, WEST WING","TAIKOO PLACE, 979 KING'S ROAD, QUARRY BAY","HONG KONG","","China","NA","N","852 2590 7300","852 2590 7390","A third-party unaffiliated record keeper","FILING"
1058323,"CROWN DATA CENTRE","CROWN WORLDWIDE BUILDING, 9-11 YUEN ON STREET","SIU LEK YUEN, NEW TERRITORIES","HONG KONG","","China","","N","852 2636 8388","852 2637 1677","A third-party unaffiliated record keeper","FILING"
1058323,"PANER HOSAKA & YPIL, ATTORNEYS AT LAW","502 PACIFIC CENTER BUILDING","33 SAN MIGUEL AVENUE, ORTIGAS CENTER","PASIG CITY","","Philippines","1603","N","(632) 633 3611","","Other","FILING"
1045429,"CENTAUR FUND SERVICES LIMITED","2ND FLOOR, 2 CUSTOM HOUSE PLAZA","HARBOURMASTER PLACE, IFSC","DUBLIN 1","","Ireland","","N","+353 18992422","+353 18992499","A third-party unaffiliated record keeper","THIS FIRM ACTS AS THE ADMINISTRATOR TO THE PRIVATE FUND"
1044369,"SS&C FUND SERVICES ASIA LIMITED","CENTRAL PLAZA, SUITE 706","18 HARBOUR ROAD, WAN CHAI","HONG KONG","","Hong kong","00000","N","+852 2589 5729","+852 2581 2089","A third-party unaffiliated record keeper","RELEVANT DOCUMENTATION IN RESPECT OF EACH OF THE TORQ MASTER FUND LTD. AND TORQ OFFSHORE FUND LTD."
1057031,"DATA SAFE","37580 FILBERT STREET","","NEWARK","CA","United States","94560","N","650-989-3291","","A third-party unaffiliated record keeper","ALL PAPER RECORDS OF THE FIRM"
1044528,"MILES ALEXANDER","16 BURNETT ROAD","","MENDHAM","NJ","United States","07945","Y","908-879-4852","","One of your branch offices or affiliates","ALL ACCOUNTING, TAX, INSURANCE AND BANKING BOOKS AND RECORDS"
1045608,"BDO AS","MUNKEDAMSVEIEN","45","OSLO","","Norway","0250","N","004723119100","","A third-party unaffiliated record keeper","BDO IS THE COMPANIES ACCOUNTANT AND SOME OF THE RECORDS WILL BE AT BDO OFFICE."
1045608,"RECALL AS","DELIVEIEN","5","VESTBY","","Norway","154","N","004764986630","","A third-party unaffiliated record keeper","STORAGE COMPANY"
1043956,"CHAMBERS RESOURCES PTE. LTD.","150 CECIL STREET","#03-00","SINGAPORE","","Singapore","069543","N","+65.65971858","+65.6538.4123","A third-party unaffiliated record keeper","ALL STATUTORY RECORDS REQUIRED TO BE MAINTAINED UNDER THE SINGAPORE COMPANIES ACT. CHAMBERS IS APPOINTED CORPORATE SECRETARIAL AGENT."
1048429,"CITCO FUND ADMINISTRATION (CAYMAN ISLANDS) LIMITED","89 NEXUS WAY","2ND FLOOR","CAMANA BAY, GRAND CAYMAN","","Cayman Islands","KY1-1205","N","345-949-3977","","A third-party unaffiliated record keeper","SUBSCRIPTION DOCUMENTS, REDEMPTION AND FINANCIAL RECORDS FOR THE FUNDS MANAGED BY THE ADVISER."
1048429,"CITCO (CANADA) INC","2 BLOOR STREET EAST","SUITE 2700","TORONTO","","Canada","M4W 1A8","N","(416) 969-6700","(416) 966-0925","A third-party unaffiliated record keeper","SUBSCRIPTION DOCUMENTS, REDEMPTION AND FINANCIAL RECORDS FOR THE FUNDS MANAGED BY THE ADVISER."
1048429,"CITCO FUND SERVICES (SAN FRANCISCO), INC.","560 MISSION STREET","26TH FLOOR","SAN FRANCISCO","CA","United States","94105","N","(415) 228 0366","","A third-party unaffiliated record keeper","SUBSCRIPTION DOCUMENTS, REDEMPTION AND FINANCIAL RECORDS FOR THE FUNDS MANAGED BY THE ADVISER."
1048429,"SMARSH","921 SW WASHINGTON ST","SUITE 540","PORTLAND","OR","United States","97205","N","866 SMARSH 1","","A third-party unaffiliated record keeper","ELECTRONIC COMMUNICATIONS."
1048429,"ABACUS GROUP, LLC","101 CALIFORNIA STREET","SUITE 3610","SAN FRANCISCO","CA","United States","94111","N","4158206000","","A third-party unaffiliated record keeper","MAINTAINS DISASTER RECOVERY BACK-UP DATA."
1047692,"SS&C FUND SERVICES (ASIA) LIMITED","SUITE 706 - 7, CENTRAL PLAZA, 18 HARBOUR ROAD","WANCHAI","HONG KONG","","Hong kong","","N","+65 6595 8620","+65 6595 8687","Other","THE ADMINISTRATOR WILL MAINTAIN RECORDS SUCH AS SUBSCRIPTION DOCUMENTS AND NAV CALCULATIONS."
1043771,"APAX PARTNERS BRAZIL CONSULTORIA LTDA.","AV. BRIGADEIRO FARIA LIMA, 2277 CJ 1704","","SAO PAULO","","Brazil","","N","55 11 4949 370","55 11 4949 379","One of your branch offices or affiliates","THE OVERSEAS OFFICES OF APAX PARTNERS MAINTAIN BOOKS AND RECORDS RELATED TO THE SERVICES THEY PERFORM FOR EACH OF THE PRIVATE FUNDS."
1043771,"TELECITY GROUP LONDON","VOLT AVENUE","POWERGATE, UNIT 1","LONDON","","United Kingdom","NW10 6PW","N","+4402070010000","","A third-party unaffiliated record keeper","A FULLY REPLICATED GLOBAL IT INFRASTRUCTURE IS SUPPORTED"
1043771,"APAX PARTNERS HONG KONG LTD.","16/F NEXXUS BUILDING","41 CONNAUGHT ROAD","CENTRAL","","Hong kong","","N","+85222005813","","One of your branch offices or affiliates","THE OVERSEAS OFFICES OF APAX PARTNERS MAINTAIN BOOKS AND RECORDS RELATED TO THE SERVICES THEY PERFORM FOR EACH OF THE PRIVATE FUNDS."
1043771,"APAX PARTNERS INDIA ADVISERS PRIVATE LTD.","2ND FLOOR, DEVCHAND HOUSE","SHIVSAGAR ESTATE, DR ANNIE BESANT ROAD, WORLI","MUMBAI","","India","","N","+912240508400","","One of your branch offices or affiliates","THE OVERSEAS OFFICES OF APAX PARTNERS MAINTAIN BOOKS AND RECORDS RELATED TO THE SERVICES THEY PERFORM FOR EACH OF THE PRIVATE FUNDS."
1043771,"APAX PARTNERS BETEILIGUNGSBERATUNG GMBH","MOEHLSTR. 10","","MUNICH","","Germany","81675","N","+49899989090","49 89 99 89 09","One of your branch offices or affiliates","THE OVERSEAS OFFICES OF APAX PARTNERS MAINTAIN BOOKS AND RECORDS RELATED TO THE SERVICES THEY PERFORM FOR EACH OF THE PRIVATE FUNDS."
1043771,"APAX PARTNERS, L.P.","601 LEXINGTON AVENUE","53RD FLOOR","NEW YORK","NY","United States","10022","N","212753630","","One of your branch offices or affiliates","THE OVERSEAS OFFICES OF APAX PARTNERS MAINTAIN BOOKS AND RECORDS RELATED TO THE SERVICES THEY PERFORM FOR EACH OF THE PRIVATE FUNDS."
1043771,"APAX INVESTMENT MANAGEMENT (SHANGHAI) COMPANY LTD.","65TH FLOOR, SHANGHAI WORLD FINANCIAL CENTER","100 CENTURY AVENUE","SHANGHAI","","China","","N","+862151985656","","One of your branch offices or affiliates","THE OVERSEAS OFFICES OF APAX PARTNERS MAINTAIN BOOKS AND RECORDS RELATED TO THE SERVICES THEY PERFORM FOR EACH OF THE PRIVATE FUNDS."
1043771,"APAX PARTNERS (ISRAEL) LTD.","MUSEUM TOWER","4 BERKOWITZ STREET","TEL AVIV","","Israel","","N","+97237774400","","One of your branch offices or affiliates","THE OVERSEAS OFFICES OF APAX PARTNERS MAINTAIN BOOKS AND RECORDS RELATED TO THE SERVICES THEY PERFORM FOR EACH OF THE PRIVATE FUNDS."
1049008,"RESOURCE FINANCIAL FUND MANAGEMENT, INC.","ONE CRESCENT DRIVE","SUITE 203","PHILADELPHIA","PA","United States","19112","N","215-717-3386","215-553-8449","One of your branch offices or affiliates","ACCOUNTING RECORDS."
1053988,"MUFG FUND SERVICES (IRELAND) LIMITED","ORMONDE HOUSE","12/13 LOWER LEESON STREET","DUBLIN 2","","Ireland","","N","+353 1 647 050","","A third-party unaffiliated record keeper","THIS IS THE ADDRESS OF THE FUND ADMINISTRATOR THAT WILL HOLD BOOKS AND RECORDS RELATING TO THE ADMINISTRATION OF THE FUND"
1058379,"BORDEN GERVAIS LADNER","1200 WATERFRONT CENTRE","200 BURRARD STREET","VANCOUVER","","Canada","V7X 1T2","N","604-687-5744","604-687-5744","A third-party unaffiliated record keeper","MAINTAINS CORPORATE RECORDS, SHARE REGISTER"
1037966,"JABRE CAPITAL PARTNERS SA","1 RUE DES MOULINS","","GENEVA","","Switzerland","1204","N","225562200","225562200","One of your branch offices or affiliates","LOCATION OF PORTFOLIO MANAGEMENT SYSTEM"
1049398,"LLOYDS  BANK PLC","10 GRESHAM STREET","","LONDON","","United Kingdom","EC2V 7AE","N","02076261500","","One of your branch offices or affiliates","ALL BOOKS AND RECORDS RELATING TO THE INVESTMENT ADVISER BUSINESS ARE MAINTAINED AT 10 GRESHAM STREET"
1056592,"MORGAN STANLEY FUND SERVICES (BERMUDA) LTD.","THE OBSERVATORY","7-11 SIR JOHN ROGERSON'S QUAY","DUBLIN","","Ireland","2","N","353 1 799 870","","A third-party unaffiliated record keeper","MSFS SERVES AS A THIRD-PARTY ADMINISTRATOR FOR PRIVATE INVESTMENT FUNDS MANAGED BY APPLICANT AND MAINTAINS CERTAIN FINANCIAL BOOKS AND RECORDS OF SUCH FUNDS AND DOCUMENTATION AND CORRESPONDENCE WITH INVESTORS IN SUCH FUNDS."
1055330,"INFRASTRUCTURE CAPITAL GROUP LIMITED","LEVEL 38, 120 COLLINS ST","","MELBOURNE, VIC","","Australia","3000","N","61 3 8680 3500","61 3 8680 3555","One of your branch offices or affiliates","STATUTORY RECORDS (I.E., REGISTER OF OFFICEHOLDERS, SHAREHOLDERS, BOARD PAPERS AND MINUTES)"
1056592,"MORGAN STANLEY FUND SERVICES USA LLC","2000 WESTCHESTER AVENUE","","PURCHASE","NY","United States","10577","N","914-225-8885","914-750-0295","A third-party unaffiliated record keeper","MSFS SERVES AS A THIRD-PARTY ADMINISTRATOR FOR PRIVATE INVESTMENT FUNDS MANAGED BY APPLICANT AND MAINTAINS CERTAIN FINANCIAL BOOKS AND RECORDS OF SUCH FUNDS AND DOCUMENTATION AND CORRESPONDENCE WITH INVESTORS IN SUCH FUNDS."
1040903,"MAPLES CORPORATE SERVICES LIMITED","PO BOX 309, UGLAND HOUSE","","GRAND CAYMAN","","Cayman Islands","KY1-1104","N","+1 345 949 806","+1 345 949 808","A third-party unaffiliated record keeper","CORPORATE RECORDS"
1040903,"CITCO FUND ADMINISTRATION (CAYMAN ISLANDS) LIMITED","89 NEXUS WAY, 2ND FLOOR","PO BOX 31106","CAMANA BAY, GRAND CAYMAN","","Cayman Islands","KY1-1205","N","+65 6571 1000","+65 6571 1032","A third-party unaffiliated record keeper","THE ADMINISTRATOR PROVIDES A RANGE OF SERVICES, INCLUDING MAINTAINING THE REGISTER OF SHAREHOLDERS OF THE FUND, RECEIVING AND PROCESSING SUBSCRIPTION AND REDEMPTION AGREEMENTS OR APPLICATIONS, SUBMITTING TO SHAREHOLDERS A STATEMENT OF THEIR HOLDINGS IN THE FUND UPON REQUEST, CALCULATION OF NET ASSET VALUE, MAINTENANCE OF ACCOUNTING REPORTS, PREPARATION OF FINANCIAL STATEMENTS FOR AUDIT PURPOSES AND LIAISON WITH AUDITORS."
1043069,"RESIDENCE OF KENNETH CHAN","1650 JACKSON STREET","#601","SAN FRANCISCO","CA","United States","94109","Y","415.518.9154","","Other","WEEKLY BACKUPS OF BOOKS AND RECORDS KEPT IN THE PRINCIPAL PLACE OF BUSINESS."
1044529,"MILES ALEXANDER","16 BURNETT ROAD","","MENDHAM","NJ","United States","07945","Y","908-879-4852","","One of your branch offices or affiliates","ALL ACCOUNTING, TAX, INSURANCE AND BANKING BOOKS AND RECORDS"
1054845,"ELIAN FUND SERVICES (JERSEY) LIMITED","44 ESPLANADE","","ST HELIER","","Jersey","JE4 9WG","N","441534504000","441534504444","A third-party unaffiliated record keeper","CERTAIN BOOKS AND RECORDS RELATED TO  ADP I GP LIMITED AND ADP I LP."
1054845,"INTERNATIONAL FINANCIAL SERVICES LIMITED","IFS COURT, BANK STREET","TWENTYEIGHT, CYBERCITY","EBENE","","Mauritius","72201","N","2304673000","2304674000","A third-party unaffiliated record keeper","CERTAIN BOOKS AND RECORDS RELATED TO DPI MNANAGEMENT LTD AND AFRICAN DEVELOPMENT PARTNERS I LLC."
1054845,"AUGENTIUS (GUERNSEY) LIMITED","GROUND FLOOR, CAMBRIDGE HOUSE","LE TRUCHOT","ST PETER PORT","","Guernsey","GY1 4BF","N","441481734300","441481734301","A third-party unaffiliated record keeper","CERTAIN BOOKS AND RECORDS RELATED TO ADP II GP LIMITED AND AFRICAN DEVELOPMENT PARTNERS II L.P."
1055631,"ACCORD CORPORATE SERVICES PTE LTD","11 COLLYER QUAY #06-06","ARCARD, THE","SINGAPORE","","Singapore","049317","N","+65 62208284","","A third-party unaffiliated record keeper","STATUTORY RECORDS TO BE MAINTAINED SO AS TO COMPLY WITH THE SINGAPORE COMPANIES ACT AND ACCOUNTABLE TO THE ACCOUNTING AND CORPORATE REGULATORY. AUTHORITY (ACRA)"
1042063,"CITCO FUND ADMINISTRATION (CAYMAN)","89 NEXUS WAY, 2ND FLOOR","CAMANA BAY P.O. BOX 31106","GRAND CAYMAN","","Cayman Islands","KY1-1205","N","13459493877","13459493877","A third-party unaffiliated record keeper","CITCO ACTS AS OUR ADMINISTRATOR KEEPING THE FUNDS BOOKS & RECORDS AND SUBSCRIPTION DOCS."
1045515,"BARING NORTH AMERICA LLC","INDEPENDENCE WHARF","470 ATLANTIC AVENUE","BOSTON","MA","United States","02210","N","617-946-5200","","One of your branch offices or affiliates","BARING NORTH AMERICA LLC MAINTAINS CERTAIN BOOKS AND RECORDS RELATING TO A FEW CLIENTS OF BARING ASSET MANAGEMENT LIMITED."
1045515,"RESTORE PLC","8 BEAM REACH","COLDHARBOUR LANE","RAINHAM ESSEX","","United Kingdom","RM13 9YB","N","01708 527 600","01708 527651","A third-party unaffiliated record keeper","RESTORE PLC IS USED TO RETAIN CERTAIN BOOKS AND RECORDS THAT ARE NO LONGER REQUIRED TO BE KEPT ON-SITE.  SUCH BOOKS AND RECORDS ARE ARCHIVED AT RESTORE PLC."
1045515,"INSTITUTIONAL SHAREHOLDER SERVICES","702 KING FARM BOULEVARD","SUITE 400","ROCKVILLE","MD","United States","20850-4045","N","405.366.5101","405.366.5050","A third-party unaffiliated record keeper","CERTAIN BOOKS AND RECORDS RELATING TO APPLICANT'S PROXY VOTING ACTIVITIES ARE MAINTAINED BY INSTITUTIONAL SHAREHOLDER SERVICES"
1045515,"BARING ASSET MANAGEMENT (ASIA) LIMITED","19/F EDINBURGH TOWER, 15 QUEEN'S ROAD","THE LANDMARK","HONG KONG","","China","","N","852-2841-1411","852-2845-9050","One of your branch offices or affiliates","BARING ASSET MANAGEMENT (ASIA) LIMITED MAINTAINS CERTAIN BOOKS AND RECORDS RELATING TO CERTAIN TRADE ACTIVITY UNDERTAKEN."
1054600,"IRON MOUNTAIN UK","GATE 1 DOCKLANDS DATA CENTRE","LEVEN ROAD POPLAR","LONDON","","United Kingdom","E14 0LL","N","44800270270","","A third-party unaffiliated record keeper","CERTAIN BOOKS AND RECORDS REQUIRED BY SECTION 204 OF THE INVESTMENT ADVISERS ACT OF 1940 AND RELEVANT UK FINANCIAL CONDUCT AUTHORITY (FCA) RECORD KEEPING REQUIREMENTS ARE ARCHIVED AT IRON MOUNTAIN."
1054600,"IRON MOUNTAIN","175 BEARFOOT ROAD","","NORTHBOROUGH","MA","United States","01532","N","888-800-1552","","A third-party unaffiliated record keeper","CERTAIN BOOKS AND RECORDS REQUIRED BY SECTION 204 OF THE INVESTMENT ADVISERS ACT OF 1940 AND RELEVANT UK FINANCIAL CONDUCT AUTHORITY (FCA) RECORD KEEPING REQUIREMENTS ARE ARCHIVED AT IRON MOUNTAIN."
1054600,"INFOSHRED LLC","3 CRAFTSMAN ROAD","","EAST WINDSOR","CT","United States","06088","N","978-671-6400","","A third-party unaffiliated record keeper","THIS LOCATION IS USED TO STORE CERTAIN BOOKS AND RECORDS. IT IS ALSO USED AS AN OFF-SITE DEPOSITARY FOR ELECTRONIC BACK-UPS OF COMPANY DATA FOR DISASTER RECOVERY PURPOSES."
1054600,"MASSACHUSETTS MUTUAL LIFE INSURANCE COMPANY","1295 MAIN STREET","","SPRINGFIELD","MA","United States","01111","N","413-788-8411","413-744-6338","One of your branch offices or affiliates","CERTAIN BOOKS AND RECORDS REQUIRED BY SECTION 204 OF THE INVESTMENT ADVISERS ACT OF 1940 AND RELEVANT UK FINANCIAL CONDUCT AUTHORITY (FCA) RECORD KEEPING REQUIREMENTS IN RELATION TO ACTIVITIES CARRIED OUT BY THE FIRM, INCLUDING THOSE RELATING TO THE FIRM'S INVESTMENT ADVISORY BUSINESS."
1054600,"IRON MOUNTAIN UK","24-26 GILLENDER STREET","","LONDON","","United Kingdom","E3 3LB","N","44800270270","","A third-party unaffiliated record keeper","CERTAIN BOOKS AND RECORDS REQUIRED BY SECTION 204 OF THE INVESTMENT ADVISERS ACT OF 1940 AND RELEVANT UK FINANCIAL CONDUCT AUTHORITY (FCA) RECORD KEEPING REQUIREMENTS ARE ARCHIVED AT IRON MOUNTAIN."
1054600,"IRON MOUNTAIN UK","NORMAN ROAD","","KENT","","United Kingdom","DA17 6JY","N","44800270270","","A third-party unaffiliated record keeper","CERTAIN BOOKS AND RECORDS REQUIRED BY SECTION 204 OF THE INVESTMENT ADVISERS ACT OF 1940 AND RELEVANT UK FINANCIAL CONDUCT AUTHORITY (FCA) RECORD KEEPING REQUIREMENTS ARE ARCHIVED AT IRON MOUNTAIN."
1054600,"IRON MOUNTAIN UK","CODY 1 & 2","UNIT 2A CODY ROAD","LONDON","","United Kingdom","E16 4TG","N","44800270270","","A third-party unaffiliated record keeper","CERTAIN BOOKS AND RECORDS REQUIRED BY SECTION 204 OF THE INVESTMENT ADVISERS ACT OF 1940 AND RELEVANT UK FINANCIAL CONDUCT AUTHORITY (FCA) RECORD KEEPING REQUIREMENTS ARE ARCHIVED AT IRON MOUNTAIN."
1054600,"IRON MOUNTAIN UK","CODY 3 & 4, UNIT 8 SOUTH CRESCENT","CODY ROAD","LONDON","","United Kingdom","E16 4SR","N","44800270270","","A third-party unaffiliated record keeper","CERTAIN BOOKS AND RECORDS REQUIRED BY SECTION 204 OF THE INVESTMENT ADVISERS ACT OF 1940 AND RELEVANT UK FINANCIAL CONDUCT AUTHORITY (FCA) RECORD KEEPING REQUIREMENTS ARE ARCHIVED AT IRON MOUNTAIN."
1054600,"BABSON CAPITAL MANAGEMENT LLC","1500 MAIN STREET","P.O. BOX 15189","SPRINGFIELD","MA","United States","01115-5189","N","413-226-1000","713-226-2688","One of your branch offices or affiliates","CERTAIN BOOKS AND RECORDS REQUIRED BY SECTION 204 OF THE INVESTMENT ADVISERS ACT OF 1940 AND RELEVANT UK FINANCIAL CONDUCT AUTHORITY (FCA) RECORD KEEPING REQUIREMENTS IN RELATION TO ACTIVITIES CARRIED OUT BY THE FIRM, INCLUDING THOSE RELATING TO THE FIRM'S INVESTMENT ADVISORY BUSINESS."
1043951,"CORNERSTONE FUND SERVICES","2795 E. COTTONWOOOD PKWY","STE 610","SALT LAKE CITY","UT","United States","84121","N","801-326-6372","","A third-party unaffiliated record keeper","FINANCIAL RECORDS"
1046113,"OMERS ADMINISTRATION CORPORATION","ONE UNIVERSITY AVE. 16TH FLOOR","","TORONTO, ONTARIO","","Canada","M5J 2P1","N","416-369-2400","416-369-1174","One of your branch offices or affiliates","MINUTE BOOKS AND FINANCIAL RECORDS"
1043201,"TRINITY FUND ADMINISTRATION LIMITED","OYSTER POINT","TEMPLE ROAD, BLACKROCK","DUBLIN","","Ireland","","N","35312799660","35312799650","A third-party unaffiliated record keeper","CERTAIN FUND RELATED RECORDS."
1047667,"CYNTHIA POIRIER","207 WEST HILL RD","","PLAINFIELD","MA","United States","01070","N","4136345040","NONE","One of your branch offices or affiliates","BOOKS AND RECORDS OF REGISTRANT."
1049093,"DATASAFE NEWARK RECORD CENTER","37580 FILBERT STREET","","NEWARK","CA","United States","94560","N","510-713-3500","","A third-party unaffiliated record keeper","HISTORICAL RECORDS"
1049093,"DATASAFE SACRAMENTO RECORD CENTER","8151 FRUITRIDGE ROAD","","SACRAMENTO","CA","United States","95826","N","916-379-9470","","A third-party unaffiliated record keeper","HISTORICAL RECORDS"
1045322,"OPUS FUND SERVICES","500 E. DIEHL ROAD","SUITE 100","NAPERVILLE","IL","United States","60563","N","(312) 256-9974","","A third-party unaffiliated record keeper","GENERAL BOOKS AND RECORDS"
1043923,"MONEDA S.A. AGF","ISIDORA GOYENECHEA  3621, PISO 8","LAS CONDES","SANTIAGO","","Chile","7550110","N","+56223377900","+5622337799","One of your branch offices or affiliates","LEGAL INFORMATION, FOUNDATIONAL DOCUMENTS, ACCOUNTING DATA AMONG OTHERS."
1043923,"MUFJ FUND SERVICES (CAYMAN) LIMITED","STRATHVALE HOUSE, 2ND FLOOR","90 NORTH CHURCH STREET, P.O. BOX 609,GEORGE TOWN","GRAND CAYMAN","","Cayman Islands","KY1-1107","N","+13457457600","+13457457690","A third-party unaffiliated record keeper","SUBSCRIPTION DOCUMENTS, AML RECORDS, NAV CALCULATIONS, SHAREHOLDER REGISTAR OF THE INVESTMENT FUNDS ADVISED BY THE INVESTMENT MANAGER."
1049673,"GORDIAN COMPLIANCE SOLUTIONS, LLC","235 MONTGOMERY STREET","SUITE 1120","SAN FRANCISCO","CA","United States","94104","N","415-466-8005","415-970-5062","A third-party unaffiliated record keeper","RECORDS RELATING TO THE FIRM'S REGULATORY FILINGS AND OTHER COMPLIANCE FILES."
1046747,"ATLAS FUND SERVICES","ARA HILL TOP BUILDING","PLETTERIJWEG OOST 1","WILLEMSTAD","","Curacao","","N","(5999)845-3200","","A third-party unaffiliated record keeper","FUND ADMINISTRATOR: CERTAIN BOOKS AND RECORDS RELATING TO HEDGE FUNDS."
1042297,"CENTAUR FUND SERVICES LIMITED","2ND FLOOR, 2 CUSTOM HOUSE PLAZA IFSC","","DUBLIN","","Ireland","DUBLIN 2","N","+353 1 899 240","+353 1 899 249","A third-party unaffiliated record keeper","POOLED INVESTMENT VEHICLES ADMINISTRATIVE AND ACCOUNTING RECORDS INCLUDING SUBSCRIPTION AND INVESTOR FILES FOR OFFSHORE POOLED INVESTMENT VEHICLES, COPIES OF WHICH WILL BE MADE AVAILABLE PROMPTLY UPON REQUEST OF THE APPLICANT IN RESPONSE TO ANY REQUEST BY THE STAFF OF THE SECURITIES AND EXCHANGE COMMISSION."
1046037,"FUNDPARTNERS SOLUTIONS (EUROPE) SA","15 AVENUE JOHN F. KENNEDY","","LUXEMBOURG","","Luxembourg","L-1855","N","+352 46 71 71-","+352 22 02 29","A third-party unaffiliated record keeper","BOOKS AND RECORDS RELATED TO THE FUNDS MANAGED BY QUAERO"
1052182,"SAFEGUARD DATA STORAGE","2843 CULLEN STREET","","FORT WORTH","TX","United States","76107","N","817-665-0802","817-332-6502","A third-party unaffiliated record keeper","OFFSITE STORAGE FOR PHYSICAL FILES AND COMPUTER TAPE BACKUPS."
1052182,"STRAIT CAPITAL COMPANY, LTD","8201 PRESTON ROAD","SUITE 460","DALLAS","TX","United States","75225","N","214-393-2950","","A third-party unaffiliated record keeper","DUPLICATE COPIES OF FUND DOCUMENTS, INCLUDING SUBSCRIPTION DOCUMENTS AND FUND ACCOUNTS AND VALUE."
1054884,"IRON MOUNTAIN","175 BEARFOOT ROAD","","NORTHBOROUGH","MA","United States","01532","N","888-800-1552","","A third-party unaffiliated record keeper","CERTAIN BOOKS AND RECORDS REQUIRED BY SECTION 204 OF THE INVESTMENT ADVISERS ACT OF 1940 AND RELEVANT UK FINANCIAL CONDUCT AUTHORITY (FCA) RECORD KEEPING REQUIREMENTS ARE ARCHIVED AT IRON MOUNTAIN."
1054884,"IRON MOUNTAIN UK","GATE 1 DOCKLANDS DATA CENTRE","LEVEN ROAD POPLAR","LONDON","","United Kingdom","E14 0LL","N","44800270270","","A third-party unaffiliated record keeper","CERTAIN BOOKS AND RECORDS REQUIRED BY SECTION 204 OF THE INVESTMENT ADVISERS ACT OF 1940 AND RELEVANT UK FINANCIAL CONDUCT AUTHORITY (FCA) RECORD KEEPING REQUIREMENTS ARE ARCHIVED AT IRON MOUNTAIN."
1054884,"INFOSHRED LLC","3 CRAFTSMAN ROAD","","EAST WINDSOR","CT","United States","06088","N","978-671-6400","","A third-party unaffiliated record keeper","THIS LOCATION IS USED TO STORE CERTAIN BOOKS AND RECORDS. IT IS ALSO USED AS AN OFF-SITE DEPOSITARY FOR ELECTRONIC BACK-UPS OF COMPANY DATA FOR DISASTER RECOVERY PURPOSES."
1054884,"MASSACHUSETTS MUTUAL LIFE INSURANCE COMPANY","1295 MAIN STREET","","SPRINGFIELD","MA","United States","01111","N","413-788-8411","413-744-6338","One of your branch offices or affiliates","CERTAIN BOOKS AND RECORDS REQUIRED BY SECTION 204 OF THE INVESTMENT ADVISERS ACT OF 1940 AND RELEVANT UK FINANCIAL CONDUCT AUTHORITY (FCA) RECORD KEEPING REQUIREMENTS IN RELATION TO ACTIVITIES CARRIED OUT BY THE FIRM, INCLUDING THOSE RELATING TO THE FIRM'S INVESTMENT ADVISORY BUSINESS."
1054884,"IRON MOUNTAIN UK","24-26 GILLENDER STREET","","LONDON","","United Kingdom","E3 3LB","N","44800270270","","A third-party unaffiliated record keeper","CERTAIN BOOKS AND RECORDS REQUIRED BY SECTION 204 OF THE INVESTMENT ADVISERS ACT OF 1940 AND RELEVANT UK FINANCIAL CONDUCT AUTHORITY (FCA) RECORD KEEPING REQUIREMENTS ARE ARCHIVED AT IRON MOUNTAIN."
1054884,"IRON MOUNTAIN UK","NORMAN ROAD","","KENT","","United Kingdom","DA17 6JY","N","44800270270","","A third-party unaffiliated record keeper","CERTAIN BOOKS AND RECORDS REQUIRED BY SECTION 204 OF THE INVESTMENT ADVISERS ACT OF 1940 AND RELEVANT UK FINANCIAL CONDUCT AUTHORITY (FCA) RECORD KEEPING REQUIREMENTS ARE ARCHIVED AT IRON MOUNTAIN."
1054884,"IRON MOUNTAIN UK","CODY 1 & 2","UNIT 2A CODY ROAD","LONDON","","United Kingdom","E16 4TG","N","44800270270","","A third-party unaffiliated record keeper","CERTAIN BOOKS AND RECORDS REQUIRED BY SECTION 204 OF THE INVESTMENT ADVISERS ACT OF 1940 AND RELEVANT UK FINANCIAL CONDUCT AUTHORITY (FCA) RECORD KEEPING REQUIREMENTS ARE ARCHIVED AT IRON MOUNTAIN."
1054884,"IRON MOUNTAIN UK","CODY 3 & 4, UNIT 8 SOUTH CRESCENT","CODY ROAD","LONDON","","United Kingdom","E16 4SR","N","44800270270","","A third-party unaffiliated record keeper","CERTAIN BOOKS AND RECORDS REQUIRED BY SECTION 204 OF THE INVESTMENT ADVISERS ACT OF 1940 AND RELEVANT UK FINANCIAL CONDUCT AUTHORITY (FCA) RECORD KEEPING REQUIREMENTS ARE ARCHIVED AT IRON MOUNTAIN."
1054884,"BABSON CAPITAL MANAGEMENT LLC","1500 MAIN STREET","P.O. BOX 15189","SPRINGFIELD","MA","United States","01115-5189","N","413-226-1000","713-226-2688","One of your branch offices or affiliates","CERTAIN BOOKS AND RECORDS REQUIRED BY SECTION 204 OF THE INVESTMENT ADVISERS ACT OF 1940 AND RELEVANT UK FINANCIAL CONDUCT AUTHORITY (FCA) RECORD KEEPING REQUIREMENTS IN RELATION TO ACTIVITIES CARRIED OUT BY THE FIRM, INCLUDING THOSE RELATING TO THE FIRM'S INVESTMENT ADVISORY BUSINESS."
1046699,"CITCO FUND SERVICES (IRELAND) LIMITED","CUSTOM HOUSE PLAZA, BLOCK 6","INTERNATIONAL FINANCIAL SERVICES CENTRE","DUBLIN 1","","Ireland","","N","3530214836600","3530214836405","A third-party unaffiliated record keeper","FUND AND COMPLIANCE RECORDS"
1047153,"CAROLYN SEID","2252 ENCINAL AVENUE","","ALAMEDA","CA","United States","94501","Y","510-769-6498","510-769-1926","A third-party unaffiliated record keeper","BOOKKEEPING RECORDS."
1047153,"HOLLY HALE","199 NEW MONTGOMERY ST.","SUITE 202","SAN FRANCISCO","CA","United States","94105","N","415-775-8877","","A third-party unaffiliated record keeper","PORTFOLIO ACCOUNTING, BROKERAGE STATEMENTS, TRADE BLOTTERS."
1047153,"TDA COMPLIANCE","305 SE CHKALOV DRIVE","SUITE 111-322","VANCOUVER","WA","United States","98683","N","(360) 737-4145","(360) 334-5858","A third-party unaffiliated record keeper","SUBSCRIPTION DOCUMENTS FOR POOLED INVESTMENT VEHICLES, CORRESPONDENCE WITH PARTNERS, AND REGISTRATION DOCUMENTS."
1056536,"JOHN DESANTIS","100 WILDERNESS TRAIL","","WAKEFIELD","RI","United States","02879","Y","617-285-7233","","Other","PERSONAL RESIDENCE THAT HOUSES BOOKS AND RECORDS FOR CIVIC CAPITAL GROUP AND THE FUND CIVIC CAPITAL FUND I LLC"
1048992,"SEI INVESTMENTS - GLOBAL FUND SERVICES LIMITED","STYNE HOUSE, 2ND FLOOR","UPPER HATCH STREET","DUBLIN","","Ireland","2","N","353 1 638 2400","","A third-party unaffiliated record keeper","CLIENT ADMINISTRATIVE AND ACCOUNTING RECORDS, COPIES OF WHICH WILL BE MADE AVAILABLE PROMPTLY UPON REQUEST OF THE APPLICANT IN RESPONSE TO ANY REQUEST BY THE STAFF OF THE SECURITIES AND EXCHANGE COMMISSION."
1055664,"CITCO FUND SERVICES (CAYMAN ISLANDS) LIMITED","89 NEXUS WAY","CAMANA BAY","GEORGE TOWN","","Cayman Islands","KY1-1206","N","1345949397","","Other","FUND ADMINISTRATOR RELATED DOCUMENTS"
1055664,"CONTROL GROUP (UK) LTD","ATLANTIC HOUSE, MICHIGAN DRIVE","TONGWELL","MILTON KEYNES","","United Kingdom","MK15 8HQ","N","+448452302485","","A third-party unaffiliated record keeper","OFF SITE ARCHIVE FOR IT TAPES, BOOKS AND RECORDS"
1044673,"MG STOVER & CO.","1350 17TH STREET","SUITE 200","DENVER","CO","United States","80202-1525","N","(303) 410-4400","(303) 648-4864","A third-party unaffiliated record keeper","PRINCIPAL LOCATION OF ACCOUNTING RECORDS AND GENERAL LEDGER"
1046651,"LLOYDS  BANK PLC","10 GRESHAM STREET","","LONDON","","United Kingdom","EC2V 7AE","N","02076261500","","One of your branch offices or affiliates","ALL BOOKS AND RECORDS RELATING TO THE INVESTMENT ADVISER BUSINESS ARE MAINTAINED AT 10 GRESHAM STREET"
1048714,"FIR TREE INC.","55 WEST 46TH STREET","29TH FLOOR","NEW YORK","NY","United States","10036","N","212-599-0090","212-659-4885","A third-party unaffiliated record keeper","ACCOUNTING, CORPORATE, INVESTOR AND OPERATIONS RECORDS ARE KEPT AT THIS LOCATION BY OUR BACK-OFFICE SERVICE PROVIDER."
1048714,"CITCO FUND SERVICES (USA) INC.","HARBORSIDE PLAZA 10","3, SECOND STREET, 6TH FLOOR","JERSEY CITY","NJ","United States","07311","N","201-793-5500","","A third-party unaffiliated record keeper","ACCOUNTING RECORDS."
1048714,"CITCO FUND SERVICES (CAYMAN ISLANDS) LIMITED","89 NEXUS WAY, 2ND FLOOR","CAMANA BAY, P.O. BOX 31106","GRAND CAYMAN","","Cayman Islands","KY1-1205","N","345-949-3977","","A third-party unaffiliated record keeper","CORPORATE RECORDS."
1048714,"CITCO (CANADA) INC.","2 BLOOR STREET EAST","SUITE 2700","TORONTO, ONTARIO","","Canada","M4W 1A8","N","416-966-9200","","A third-party unaffiliated record keeper","INVESTOR RECORDS."
1048714,"AKIN GUMP STRAUSS HAUER & FELD LLP","1700 PACIFIC AVENUE","SUITE 4100","DALLAS","TX","United States","75201-4624","N","214-969-4667","","A third-party unaffiliated record keeper","ARCHIVES OF ACCOUNTING, OPERATIONS AND HUMAN RESOURCE RECORDS."
1046260,"DEUTSCHE BANK (CAYMAN) LIMITED","171 ELGIN AVENUE, PO BOX 1984","BOUNDARY HALL, CRICKET SQUARE","GRAND CAYMAN","","Cayman Islands","KY1-1104","N","345-949-8244","345-949-8178","A third-party unaffiliated record keeper","INVESTOR RELATED DOCUMENTS SUCH AS ORIGINAL SUBSCRIPTION FORMS, ALL NAV RELATED BOOKS AND RECORDS, EXPENSE VOUCHERS, AND FUND LEGAL DOCUMENTS SUCH AS AGREEMENTS AND RESOLUTIONS."
1046260,"DEUTSCHE BANK AG (SINGAPORE BRANCH)","ONE RAFFLES QUAY","SOUTH TOWER, LEVEL 17","SINGAPORE","","Singapore","048583","N","65 64238001","65 62259442","A third-party unaffiliated record keeper","INVESTOR RELATED DOCUMENTS SUCH AS ORIGINAL SUBSCRIPTION FORMS, ALL NAV RELATED BOOKS AND RECORDS, EXPENSE VOUCHERS, AND FUND LEGAL DOCUMENTS SUCH AS AGREEMENTS AND RESOLUTIONS."
1046260,"CIM GLOBAL BUSINESS","33, EDITH CAVELL STREET","","PORT-LOUIS","","Mauritius","","N","230-212-9800","230-212-9833","A third-party unaffiliated record keeper","NAV RELATED BOOKS AND RECORDS AND OTHER LEGAL AGREEMENTS AND RESOLUTIONS."
1046964,"PEF SERVICES LLC","300 EXECUTIVE DRIVE","SUITE 150","WEST ORANGE","NJ","United States","07052","N","212-203-4685","","A third-party unaffiliated record keeper","PEF SERVICES IS A 3RD PARTY FUND ADMINISTRATOR WHO ASSISTS WITH THE ACCOUNTING AND RECORDKEEPING FOR LONGUEVUE CAPITAL PARTNERS II, LP, A PRIVATE FUND MANAGED BY US."
1047246,"PRIVATE EQUITY ADMINISTRATORS","RIDDARGATAN 13, D","","STOCKHOLM","","Sweden","SE 114 51","N","46 855802660","","A third-party unaffiliated record keeper","ACCOUNTING AND BOOKKEEPING."
1049374,"VIBURNUM FUNDS PTY LTD","31 CARRINGTON STREET","","NEDLANDS","","Australia","6009","N","+61864309850","+61864309899","One of your branch offices or affiliates","ACCOUNTS, LEGAL DOCUMENTS, OTHER INFORMATION."
1057773,"RECALL","UNIT 110 - 19159 22ND AVENUE","","SURREY, BC","","Canada","V3S 3S6","N","N/A","","A third-party unaffiliated record keeper","THIS IS AN ARCHIVAL STORAGE FACILITY THAT MAINTAINS HISTORICAL BOOKS AND RECORDS THAT ARE NO LONGER REQUIRED TO BE MAINTAINED ON-SITE UNDER SECTION 204 OF THE INVESTMENT ADVISORS ACT. RECORDS INCLUDE VARIOUS FINANCIAL, CLIENT AND TRANSACTION RECORDS."
1047647,"CITCO FUND SERVICES (SAN FRANCISCO), INC.","560 MISSION STREET, 26TH FLOOR","","SAN FRANCISCO","CA","United States","94105","N","415.228.0390","415.228.0335","A third-party unaffiliated record keeper","FINANCIAL STATEMENTS AND SUPPORTING DOCUMENT AND BOOKS AND RECORDS NECESSARY TO CALCULATE NET ASSET VALUE OF THE PARTNERSHIP AND EACH INVESTOR HOLDINGS."
1047647,"CITCO (CANADA) INC.","2 BLOOR STREET EAST, SUITE 2700","","TORONTO","","Canada","M4W 1A8","N","416.966.9200","416.966.9210","A third-party unaffiliated record keeper","MAINTAINING A REGISTER OF INVESTORS; DOCUMENTS NECESSARY FOR ISSUANCE, TRANSFER AND INVESTOR WITHDRAWAL REQUESTS; UNAUDITED INVESTOR STATEMENTS; AND PARTNERSHIP FINANCIAL STATEMENTS."
1058293,"ADVANCED FUND ADMINISTRATION (CAYMAN) LTD.","27 HOSPITAL ROAD, CAYMAN CORPORATE CENTRE, 5TH FL","P.O. BOX 1748","GRAND CAYMAN","","Cayman Islands","KY1-1109","N","908.273.4545","","A third-party unaffiliated record keeper","ADVANCED FUND ADMINISTRATION (CAYMAN) LTD. MAINTAINS CERTAIN BOOKS AND RECORDS IN CONNECTION WITH ITS ROLE AS ADMINISTRATOR TO THE PRIVATE FUNDS LISTED IN SECTION 7.B.(1) OF SCHEDULE D."
1047747,"SALISBURY BANK AND TRUST COMPANY","5 BISSELL STREET","","LAKEVILLE","CT","United States","06039","N","860-453-3390","","A third-party unaffiliated record keeper","ACCOUNTING RECORDS"
1043205,"BDO AB","KARLAVÄGEN 100","","STOCKHOLM","","Sweden","104 51","N","+46 8 120 11 6","","A third-party unaffiliated record keeper","EXTERNAL ACCOUNTANT"
1046292,"HEDGESERV LIMITED","75 ST. STEPHENS GREEN","","DUBLIN","","Ireland","","N","353-1234-1000","646-465-9834","A third-party unaffiliated record keeper","IN ITS CAPACITY AS THIRD-PARTY ADMINISTRATOR FOR CERTAIN ADVISORY CLIENTS OF THE REGISTRANT, HEDGESERV LIMITED MAINTAINSCERTAIN BOOKS AND RECORDS FOR CERTAIN ADVISORY CLIENTS MENTIONED BELOW."
1050152,"IKONIC FUND SERVICES","15801 JOHN J. DELANEY DRIVE,","SUITE 540","CHARLOTTE","NC","United States","28277","N","704.927.1859","704.927.1879","A third-party unaffiliated record keeper","CERTAIN RECORDS OF OUR PRIVATE FUNDS ARE MAINTAINED AT THIS ADDRESS."
1056081,"GLOBAL RELAY COMMUNICATIONS INC.","286 MADISON AVENUE","","NEW YORK","NY","United States","10017","N","8664846630","8664846630","Other","ARCHIVED EMAIL COMMUNICATION ACCESSIBLE VIA A SECURED WEB-BASED PORTAL."
1056081,"VAULTLOGIX","75 SYLVAN STREET","","DANVERS","MA","United States","01923","N","9787777177","9787777177","Other","BACKUP SOURCE FOR BOOKS AND RECORDS"
1056081,"GENERIC NETWORK SYSTEMS","3402 E. UNIVERSITY DRIVE","","PHOENIX","AZ","United States","85034","N","2122684722","2122684722","Other","BACKUP SOURCE FOR BOOKS AND RECORDS."
1055346,"CAMPBELLS CORPORATE SERVICES LIMITED","FLOOR 4, WILLOW HOUSE, CRICKET SQUARE","","GRAND CAYMAN","","Cayman Islands","KY1-1104","N","+13459145869","+13459452877","A third-party unaffiliated record keeper","CAMPBELLS CORPORATE SERVICES LIMITED PROVIDES SERVICES AS THE REGISTERED OFFICE OF SEGANTII CAPITAL MANAGEMENT (CAYMAN) LIMITED AND KEEPS CORPORATE RECORDS AND DOCUMENTS REQUIRED TO BE KEPT AT THE REGISTERED OFFICE UNDER CAYMAN ISLANDS REGULATIONS."
1055346,"CROWN DATA CENTRE 3","NO 23 TAK YIP STREET, YUEN LONG","NEW TERRITORIES","HONG KONG","","Hong kong","0000","N","+85226368388","","A third-party unaffiliated record keeper","RECORDS RELATING TO TRADING ACTIVITIES OF THE SEGANTII ASIA-PACIFIC EQUITY MULTI-STRATEGY FUND. SEGANTII CAPITAL MANAGEMENT (CAYMAN) LIMITED ACTS AS THE INVESTMENT MANAGER TO THIS FUND"
1055346,"CROWN DATA CENTRE 2","NO 1, LEUNG YIP STREET, YUEN LONG","NEW TERRITORIES","HONG KONG","","Hong kong","0000","N","+85226368388","+85226371677","A third-party unaffiliated record keeper","RECORDS RELATING TO THE TRADING ACTIVITIES OF THE SEGANTII ASIA-PACIFIC EQUITY MULTI-STRATEGY FUND. SEGANTII CAPITAL MANAGEMENT (CAYMAN) LIMITED ACTS AS INVESTMENT ADVISER TO THIS FUND"
1055346,"CROWN DATA CENTRE 1","NO 4-6 KIN FUNG CIRCUIT, TUEN MUN","NEW TERRITORIES","HONG KONG","","Hong kong","0000","N","+85226368388","+85226371677","A third-party unaffiliated record keeper","RECORDS RELATING TO THE TRADING ACTIVITIES OF THE SEGANTII ASIA-PACIFIC EQUITY MULTI-STRATEGY FUND. SEGANTII CAPITAL MANAGEMENT (CAYMAN) LIMITED ACTS AS INVESTMENT ADVISER TO THIS FUND."
1057320,"CITCO FUND SERVICES (IRELAND) LIMITED","CUSTOM HOUSE PLAZA","BLOCK 6, INTERNATIONAL FINANCIAL SERVICES CENTRE","DUBLIN","","Ireland","DUBLIN 1","N","+353214836630","+353214836405","A third-party unaffiliated record keeper","CITCO FUND SERVICES (IRELAND)LIMITED IS THIRD PARTY ADMINISTRATOR FOR THE ZENSEN FUND."
1057320,"BNP PARIBAS SECURITIES SERVICES S.C.A., ACTING THROUGH ITS HONG KONG BRANCH","21/F, PCCW TOWER","979 KING'S ROAD","QUARRY BAY","","Hong kong","","N","+852 21086459","+852 25217653","A third-party unaffiliated record keeper","BNP PARIBAS SECURITIES SERVICES SCA ACTING THROUGH ITS HONG KONG BRANCH ACTS AS SUB-ADMINISTRATOR TO THE ARCUS JAPAN VALUE FUND AND ARCUS GENSEKI FUND."
1057320,"BNP PARIBAS FUND ADMINISTRATION SERVICES (CAYMAN) LIMITED","PO BOX 2003, GRAND PAVILION COMMERCIAL CENTRE","802 WEST BAY ROAD","GRAND CAYMAN","","Cayman Islands","KY1-1104","N","+3459497942","+3459498340","A third-party unaffiliated record keeper","BNP PARIBAS FUND ADMINISTRATION SERVICES (CAYMAN) LIMITED IS THE ADMINISTRATOR OF THE ARCUS JAPAN VALUE FUND AND ARCUS GENSEKI FUND."
1057320,"NORTHERN TRUST LUXEMBOURG MANAGEMENT COMPANY S.A.","6 RUE LOU HEMMER","","LUXEMBOURG","","Luxembourg","L-1748","N","+3522762221","+3522762221","A third-party unaffiliated record keeper","NORTHERN TRUST LUXEMBOURG MANAGEMENT COMPANY S.A. IS THE ADMINISTRATIVE AGENT, REGISTRAR AND TRANSFER AGENT AND CUSTODIAN OF ARCUS JAPAN FUND / ARCUS JAPAN LONG/SHORT FUND."
1056663,"STOCKTON BUSINESS SERVICES, INC.","CITY CENTRE ONE, 800 TOWN AND COUNTRY BLVD.","","HOUSTON","TX","United States","77024","N","713-376-7965","","Other","STOCKTON BUSINESS SERVICES, INC. MAINTAINS THE BOOKS, RECORDS, ACCOUNTS AND LEDGERS OF MARBLE CAPITAL LP, ITS AFFILIATES AND THE PRIVATE FUNDS DESCRIBED HEREIN, INCLUDING ALL NOTICES, CORRESPONDENCE, REPORTS, AGREEMENT RECORDS, INVOICES AND OTHER DOCUMENTATION RELATED TO THE PERFORMANCE OF THE DAY-TO-DAY ACCOUNTING FUNCTIONS OF THE FOREGOING ENTITIES."
1047268,"INTERNATIONAL FUND SERVICES","3RD FLOOR, BISHOPS SQUARE","REDMOND'S HILL","DUBLIN","","Ireland","","N","353 1 707 5000","","A third-party unaffiliated record keeper","FINANCIAL, ACCOUNTING AND INVESTOR RECORDS FOR THE PRIVATE FUNDS RETAINED BY THE REGISTRANT, INTERNATIONAL FUND SERVICES (FUND ADMINISTRATOR)"
1053967,"WILLIAM GREENLEAF ELIOT SEED FUND MANAGER, LLC","CAMPUS BOX 1199, ONE BROOKINGS DRIVE","","ST. LOUIS","MO","United States","63130","N","3149359134","3149359134","One of your branch offices or affiliates","BOOKS AND RECORDS RELATED TO INVESTMENT DECISIONS WILL BE KEPT AT THIS LOCATION."
1047111,"NAV FUND ADMINISTRATION GROUP","1 TRANS AM PLAZA DRIVE","SUITE 400","OAKBROOK TERRACE","IL","United States","60181","N","630.954.1919","","A third-party unaffiliated record keeper","GENERALLY, CERTAIN BOOKS AND RECORDS REQUIRED TO BE MAINTAINED PURSUANT TO SECTION 204 OF THE ADVISERS ACT ARE MAINTAINED AT THIS LOCATION."
1054821,"HALL CAPITAL MANAGEMENT COMPANY, LLC","9225 LAKE HEFNER PARKWAY","STE 200","OKLAHOMA CITY","OK","United States","73120-2061","N","(405) 231-2400","(405) 231-2406","One of your branch offices or affiliates","ACCOUNTING RECORDS, PARTNER COMMUNICATIONS, PORTFOLIO COMPANY FINANCIAL STATEMENTS, CLOSING DOCUMENTS, AND OTHER RECORDS."
1042058,"WELLS FARGO GLOBAL FUND SERVICES LLC","150 EAST, 42ND STREET, 40TH FLOOR","","NEW YORK","NY","United States","10017","N","+1952857473","","Other","ADMINISTRATOR, REGISTRAR AND TRANSFER AGENT TO SAGEONE INDIA GROWTH FUND AND LC INDIA MARKET NEUTRAL FUND; MAINTAINS, FOR EXAMPLE, RECORDS RELATING TO INVESTOR SUBSCRIPTIONS AND REDEMPTIONS, TRADING STATEMENTS AND MATERIALS IN SUPPORT OF NAV."
1054877,"IRON MOUNTAIN","2500 HENDERSON DRIVE","","SHARON HILL","PA","United States","19079","N","215-633-0525","","A third-party unaffiliated record keeper","PRIMARY ARCHIVING SERVICE FOR THE REGISTRANT"
1054877,"STATE STREET BANK AND TRUST COMPANY","2 AVENUE DE LAFAYETTE","","BOSTON","MA","United States","02111","N","617-664-9566","","Other","PRIVATE FUNDS"
1054877,"BNP PARIBAS SECURITIES SERVICES LUXEMBOURG BRANCH","60 AVENUE JOHN F. KENNEDY","","LUXEMBOURG","","Luxembourg","1855","N","35226962000","","Other","BNP IS ABERDEEN GROUP'S PRIMARY ADMINISTRATOR AND CUSTODIAN FOR CERTAIN FUNDS MANAGED BY ABERDEEN GLOBAL SERVICES SA. INCLUDING THE PRIVATE FUND"
1054877,"STATE STREET BANK LUXEMBOURG SA","49 AVENUE J-F KENNEDY","","LUXEMBOURG","","Luxembourg","1855","N","3524640101","","Other","STATE STREET IS ADMINISTRATOR AND CUSTODIAN FOR ABERDEEN LIQUIDITY FUND (LUX)"
1054877,"RBC INVESTOR SERVICES HONG KONG  LIMITED","51F, CENTRAL PLAZA, 18 HARBOUR ROAD, WANCHAI, HONG","","HONG KONG","","Hong kong","","N","852-28681309","","Other","THIS IS A THIRD - PARTY ADMINISTRATOR WHICH KEEPS SOME UNDERLYING INVESTOR DOCUMENTS."
1054877,"ABERDEEN ASSET MANAGEMENT PLC","10 QUEENS TERRACE","","ABERDEEN","","United Kingdom","AB10 1YG","N","441224631999","","One of your branch offices or affiliates","PARENT COMPANY AND MAY MAINTAIN SOME BOOKS AND RECORDS FOR THE REGISTRANT"
1054877,"ABERDEEN ASSET MANAGEMENT PLC","BOW BELLS HOUSE","1 BREAD STREET","LONDON","","United Kingdom","EC4M 9HH","N","442074636000","","One of your branch offices or affiliates","PARENT COMPANY AND MAY MAINTAIN SOME BOOKS AND RECORDS FOR THE REGISTRANT"
1054877,"SWORD","120 ALDERSGATE STREET","","LONDON","","United Kingdom","EC1A 4JQ","N","01144207539650","","Other","ENTERPRISE RISK MANAGEMENT SOFTWARE     TEL 011 44 20 7539 6500"
1058615,"STATE STREET CAYMAN TRUST COMPANY, LTD.","PO BOX 31113, 45 MARKET STREET","SUITE 3206A, GARDENIA COURT","GRAND CAYMAN","","Cayman Islands","","N","345-949-6644","","A third-party unaffiliated record keeper","ORGANIZATIONAL, VALUATION, AND SUBSCRIPTION DOCUMENTS AND RECORDS  REQUIRED PURSUANT TO RULE 204-2 OF THE INVESTMENT ADVISER ACT OF 1940, AS AMENDED."
1058615,"STATE STREET FUND SERVICES (IRELAND) LIMITED","78 SIR JOHN ROGERSON'S QUAY","","DUBLIN","","Ireland","2","N","+35317768000","+35317768491","A third-party unaffiliated record keeper","ORGANIZATIONAL, VALUATION, AND SUBSCRIPTION DOCUMENTS AND RECORDS REQUIRED PURSUANT TO RULE 204-2 OF THE INVESTMENT ADVISER ACT OF 1940, AS AMENDED."
1045177,"APEX FUND SERVICES (CAYMAN) LIMITED","WILLIAM HOUSE, 3RD FLOOR","20 REID STREET","HAMILTON","","Bermuda","HM11","N","+1441292273","","A third-party unaffiliated record keeper","RECORDS PERTAINING TO INVESTMENT ACTIVITIES AND FUND INVESTORS"
1045177,"APEX FUND SERVICES (SINGAPORE) PTE. LTD.","#13-13A INTERNATIONAL PLAZA","10 ANSON ROAD","SINGAPORE","","Singapore","079903","N","+6562952335","+6562956355","A third-party unaffiliated record keeper","RECORDS PERTAINING TO INVESTMENT ACTIVITIES AND FUND INVESTORS"
1045177,"M&C CORPORATE SERVICES LTD","PO BOX 309GT UGLAND HOUSE","SOUTH CHURCH ST, GEORGE TOWN","GRAND CAYMAN","","Cayman Islands","KY1-1104","N","+13459457099","+13459457100","A third-party unaffiliated record keeper","CONSTITUTIONAL DOCUMENTS"
1049583,"EAST ASIA SENTINEL LIMITED","22F TAI YAU BUILDING","181 JOHNSTON ROAD","WAN CHAI","","Hong kong","00000","N","+852 2869-0780","+852 2525-9890","A third-party unaffiliated record keeper","EAS IS OUR COMPANY SECRETARY AND OUR REGISTERED OFFICE. IT IS THE OFFICIAL LOCATION OF THIS ADVISER'S OWN RECORDS."
1049583,"BNP PARIBAS SECURITIES SERVICES S.C.A, ACTING THROUGH ITS HONG KONG BRANCH","21/F, PCCW TOWER","979 KING'S ROAD","QUARRY BAY","","Hong kong","","N","+852 21086459","+852 25217653","A third-party unaffiliated record keeper","BNP PARIBAS SECURITIES SERVICES S.C.A, ACTING THROUGH ITS HONG KONG BRANCH ACTS AS SUB-ADMINISTRATOR TO THE ARCUS JAPAN FUND AND ARCUS GENSEKI FUND."
1049583,"CITCO FUND SERVICES (IRELAND) LIMITED","CUSTOM HOUSE PLAZA","BLOCK 6, INTERNATIONAL FINANCIAL SERVICES CENTRE","DUBLIN","","Ireland","DUBLIN 1","N","+353214836630","+353214836405","A third-party unaffiliated record keeper","CITCO FUND SERVICES (IRELAND) LIMITED IS THIRD PARTY ADMINISTRATOR FOR THE ZENSEN FUND."
1049583,"BNP PARIBAS FUND ADMINISTRATION SERVICES (CAYMAN) LIMITED","PO BOX 2003, GRAND PAVILLION COMMERCIAL CENTRE","802 WEST BAY ROAD","GRAND CAYMAN","","Cayman Islands","KY1-1104","N","+3459497942","+3459498340","A third-party unaffiliated record keeper","BNP PARIBAS FUND ADMINISTRATION SERVICES (CAYMAN) LIMITED IS THE ADMINISTRATOR OF THE ARCUS JAPAN VALUE FUND AND ARCUS GENSEKI FUND."
1049583,"NORTHERN TRUST LUXEMBOURG MANAGEMENT COMPANY S.A","6 RUE LOU HEMMER","","LUXEMBOURG","","Luxembourg","L-1748","N","+3522762221","+3522762221","A third-party unaffiliated record keeper","NORTHERN TRUST LUXEMBOURG MANAGEMENT COMPANY S.A IS THE ADMINISTRATIVE AGENT, REGISTRAR AND TRANSFER AGENT AND CUSTODIAN OF ARCUS JAPAN FUND/ ARCUS JAPAN LONG/SHORT FUND."
1056583,"CITCO FUND ADMINISTRATION (CAYMAN ISLANDS) LIMITED","89 NEXUS WAY","2ND FLOOR CAMANA BAY","GRAND CAYMAN","","Cayman Islands","KY1-1205","N","2075555555","","A third-party unaffiliated record keeper","IN ITS CAPACITY AS A THIRD PARTY ADMINISTRATOR OF THE FUNDS MANAGED BY SEALIGHT CAPITAL LLP, CITCO FUND ADMINISTRATION (CAYMAN ISLANDS) LIMITED MAINTAINS CERTAIN BOOKS AND RECORDS RELATED TO THE FUNDS AT THIS LOCATION."
1048719,"MAITLAND ADMINISTRATION LTD.","30 DAMASCUS ROAD","SUITE 202","BEDFORD, NOVA SCOTIA","","Canada","B4A 0C1","N","+1 902 442 945","+1 345 949 070","A third-party unaffiliated record keeper","MAITLAND ACTS AS ADMINISTRATOR TO PRIVATE FUNDS AND HOLDS ACCOUNTING AND INVESTOR RECORDS, AML DOCUMENTATION AND SUBSCRIPTION DOCUMENTS."
1051669,"FRANKLIN RESOURCES, INC.","ONE FRANKLIN PARKWAY","","SAN MATEO","CA","United States","94403","N","650-525-7510","650-525-7570","One of your branch offices or affiliates","SEE ""MISCELLANEOUS SECTION""."
1051669,"FRANKLIN TEMPLETON SERVICES, LLC","140 FOUNTAIN PARKWAY","","ST. PETERSBURG","FL","United States","33716","N","954-527-7500","954-527-7329","One of your branch offices or affiliates","A PORTION OF THE ORIGINAL BOOKS AND RECORDS ARE MAINTAINED BY FRANKLIN TEMPLETON SERVICES, LLC."
1051669,"LAB SERVICES PSF S.A.","LAB DATA CENTRE","ZONE INDUSTRIELLE","MUNSBACH","","Luxembourg","L-5366","N","+352 350 222 1","+352350222350","A third-party unaffiliated record keeper","A PORTION OF THE ORIGINAL BOOKS AND RECORDS ARE MAINTAINED BY LAB SERVICES PSF S.A."
1045573,"HEDGESERV","1251 AVENUE OF THE AMERICAS","21ST FLOOR","NEW YORK","NY","United States","10020","N","212 920 3520","","A third-party unaffiliated record keeper","HEDGESERV SERVES AS THE FUND ADMINISTRATOR FOR THE FIRM."
1045573,"HEDGESERV (CAYMAN) LTD","P.O BOX 261","WILLOW HOUSE CRICKET SQUARE","GRAND CAYMAN","","Cayman Islands","KYI-1104","N","345 769 8120","","A third-party unaffiliated record keeper","HEDGESERV SERVES AS THE FUND ADMINISTRATOR FOR THE FIRM."
1045573,"HEDGESERV LIMITED","75 ST STEPHENS GREEN","2ND FLOOR","DUBLIN","","Ireland","2","N","+3531234 1000","","A third-party unaffiliated record keeper","HEDGESERV SERVES AS THE FUND ADMINISTRATOR FOR THE FIRM."
1039387,"CONIFER ASSET SOLUTIONS, LLC","767 THIRD AVENUE","39TH FLOOR","NEW YORK","CA","United States","10017","N","212-676-5500","","A third-party unaffiliated record keeper","GENERAL ADMINISTRATIVE RECORDS"
1052051,"STATE STREET FUND SERVICES (IRELAND) LIMITED","78 SIR JOHN ROGERSON'S QUAY","","DUBLIN","","Ireland","","N","353-1-242-5534","353-1-438-9537","A third-party unaffiliated record keeper","OFFICIAL BOOKS AND RECORDS OF THE PLAINVIEW FUNDS PLC, INCLUDING EACH SUB-FUND."
1038333,"SS&C TECHNOLOGIES, INC.","80 LAMBERTON ROAD","","WINDSOR","CT","United States","06095","N","860-298-4599","","A third-party unaffiliated record keeper","CERTAIN BOOKS AND RECORDS RELATING TO THE FUND INCLUDING DOCUMENTS PERTAINING TO MIDDLE OFFICE AND ACCOUNTING SUPPORT; PORTFOLIO RECONCILIATION AND NET ASSET VALUE CALCULATION; FUND INVESTOR REGISTERS AND INVESTOR SUBSCRIPTION DOCUMENTATION, INCLUDING DOCUMENTATION RELATING TO AML COMPLIANCE VERIFICATIONS."
1056518,"MADISON-INDIA MANAGEMENT ADVISORS PRIVATE LIMITED","C/O 5311-A, HARDHYAN SINGH ROAD DEV NAGAR","KAROL BAGH","DELHI","","India","110005","N","011-4100831","","One of your branch offices or affiliates","[TO COME]"
1039036,"U.S. BANCORP FUND SERVICES, LTD. (FORMERLY KNOWN AS AIS FUND ADMINISTRATION LTD.)","433 HACKENSACK AVENUE","","HACKENSACK","NJ","United States","07601","N","(201) 478-7211","","A third-party unaffiliated record keeper","FINANCIAL, ACCOUNTING AND INVESTOR RECORDS FOR THE PRIVATE INVESTMENT FUNDS MANAGED BY REGISTRANT"
1047072,"AGILE FUND SOLUTIONS, LLC","10877 WILSHIRE BLVD","SUITE 1605","LOS ANGELES","CA","United States","90024","N","310-806-6268","","A third-party unaffiliated record keeper","AGILE FUND SOLUTIONS, LLC IS AN UNAFFILIATED FIRM PROVIDING OUTSOURCED CFO AND OPERATIONAL SUPPORT. THEY MAINTAIN THE GENERAL LEDGER AND ACCOUNTING RECORDS FOR THE FIRM IN ADDITION TO FUND ACCOUNTING AND ADMINISTRATIVE BOOKS AND RECORDS."
1047072,"OPUS FUND SERVICES (BERMUDA) LTD","47 MANGROVE BAY ROAD","","SANDYS","","Bermuda","MA 01","N","441-234-0004","","A third-party unaffiliated record keeper","OPUS FUND SERVICES (BERMUDA) LTD IS AN UNAFFILIATED THIRD PARTY FUND ADMINISTRATOR. THEY MAINTAIN EACH FUNDS ACCOUNTING AND ADMINISTRATIVE BOOKS AND RECORDS. INCLUDING THE GENERAL LEDGER AND INVESTOR SUBSCRIPTION DOCUMENTS."
1047185,"O'CONNOR DAVIES","3001 SUMMER STREET","FIFTH FLOOR EAST","STAMFORD","CT","United States","06905","N","2033232400","2039678733","A third-party unaffiliated record keeper","CORPORATE FORMATION AND REGISTRATION INFORMATION, BOARD MINUTES"
1044591,"BNY MELLON FUND SERVICES (IRELAND) LIMITED","RIVERSIDE TWO","SIR JOHN ROGERSON'S QUAY, GRAND CANAL DOCK","DUBLIN 2","","Ireland","","N","353 1 790 3555","","A third-party unaffiliated record keeper","FINANCIAL ACCOUNTING RECORDS AND DATA, AND OTHER INFORMATION ANCILLARY TO ITS ROLE AS FUND ADMINISTRATOR TO CERTAIN FUNDS MANAGED BY THE FIRM"
1044591,"CITCO FUND SERVICES (IRELAND) LIMITED","BLOCK 6, CUSTOM HOUSE PLAZA, IFSC","","DUBLIN 1","","Ireland","","N","353(1)637 7300","","A third-party unaffiliated record keeper","FINANCIAL ACCOUNTING RECORDS AND DATA, AND OTHER INFORMATION ANCILLARY TO ITS ROLE AS FUND ADMINISTRATOR TO CERTAIN FUNDS MANAGED BY THE FIRM"
1044591,"DB FUND SERVICES LLC","1761 EAST ST. ANDREWS PLACE","","SANTA ANA","CA","United States","92705","N","7142476335","","One of your branch offices or affiliates","FINANCIAL ACCOUNTING RECORDS AND DATA, AND OTHER INFORMATION ANCILLARY TO ITS ROLE AS FUND ADMINISTRATOR TO CERTAIN FUNDS MANAGED BY THE FIRM."
1044591,"STATE STREET FUND SERVICES (IRELAND) LIMITED,","78 SIR JOHN ROGERSON'S QUAY","","DUBLIN 2","","Ireland","","N","+353 1 776 800","","A third-party unaffiliated record keeper","FINANCIAL ACCOUNTING RECORDS AND DATA, AND OTHER INFORMATION ANCILLARY TO ITS ROLE AS FUND ADMINISTRATOR TO CERTAIN FUNDS MANAGED BY THE FIRM."
1044591,"JT DATA CENTRE","LA GRANDE ROUTE DE ST MARTIN","","ST SAVIOUR, CHANNEL ISLANDS","","Jersey","","N","+44 1534 882 3","","Other","DATA BACK-UP AND ARCHIVING."
1057621,"HERITAGE GROUP LTD","PO BOX 225 HERITAGE HALL","LE MARCHANT STREET","ST PETER PORT","","Guernsey","GY1 4HY","N","44 (0) 1481 71","N/A","A third-party unaffiliated record keeper","ADMINISTRATOT TO PRIVATE FUND: P25 LP"
1057621,"BELASKO ADMINISTRATION LIMITED","1 LE TRUCHOT","","ST PETER PORT","","Guernsey","GY11WD","N","01481738101","01481738119","A third-party unaffiliated record keeper","ADMINISTRATOR TO PRIVATE FUNDS: P123 LIMITED, P123 C.I. LIMITED, P1234 LIMITED, SAPHIRE IV LIMITED AND SVG SAPHIRE IV LIMITED."
1057621,"MAPLES FUND SERVICES (DUBLIN) LIMITED","BEAUX LANE HOUSE","MERCER STREET LOWER","DUBLIN 2","","Ireland","DUBLIN 2","N","01 697 3200","01 697 3300","A third-party unaffiliated record keeper","ADMINISTRATOR TO PRIVATE FUND: SVG DIAMOND PRIVATE EQUITY III PLC"
1057621,"BNY MELLON ALTERNATIVE INVESTMENT SERVICES","RIVERSIDE TWO,","SIR JOHN ROGERSON'S QUAY, GRAND CANAL DOCK","DUBLIN","","Ireland","DUBLIN 2","N","1 790 3904","1 790 3510","A third-party unaffiliated record keeper","ADMINISTRATOR TO PRIVATE FUND: SVG ASIA FUND OF FUNDS PLC."
1057621,"STRUCTURED FINANCE MANAGEMENT OFFSHORE LIMITED","47 ESPLANADE","","ST. HELIER","","Jersey","JE1 0BD","N","1534 510 924","","A third-party unaffiliated record keeper","ADMINISTRATOR TO PRIVATE FUNDS: SVG DIAMOND HOLDINGS II LIMITED AND SVG DIAMOND PRIVATE EQUITY PLC."
1057621,"IRON MOUNTAIN","3RD FLOOR COTTONS CENTRE","TOOLEY STREET","LONDON","","United Kingdom","SE1 2TT","N","020 7939 1500","","A third-party unaffiliated record keeper","OFF-SITE DOCUMENT STORAGE/MANAGEMENT SERVICE PROVIDER"
1055126,"SS&C GLOBEOP","675 THIRD AVENUE, 17TH FLOOR","","NEW YORK","NY","United States","10017","N","212-319-9730","212-319-7690","A third-party unaffiliated record keeper","SS&C GLOBEOP IS A THIRD PARTY ADMINISTRATOR AND MAINTAINS FINANCIAL RECORDS."
1055544,"WILEY REIN LLP, C/O ROBERT BENTON & JILL FRANZEN","1776 K STREET NW","","WASHINGTON","DC","United States","20006","N","202.719.7142","202.719.7049","A third-party unaffiliated record keeper","INVESTOR RECORDS, FINANCIAL RECORDS."
1057855,"LGT BANK LTD","HERRENGASSE","12","VADUZ","","Liechtenstein","9490","N","+423 235 11 22","+423 235 15 22","One of your branch offices or affiliates","LGT BANK LTD. IS A CUSTODIAN FOR SOME OF OUR CLIENTS"
1056896,"SS&C TECHNOLOGIES, INC.","80 LAMBERTON ROAD","","WINDSOR","CT","United States","06095","N","212-261-6732","860-371-2503","A third-party unaffiliated record keeper","SS&C TECHNOLOGIES, INC. IS AN UNAFFILIATED THIRD-PARTY FUND ADMINISTRATOR FOR CERTAIN PRIVATE FUNDS FOR WHICH OSKIE CAPITAL MANAGEMENT, LLC IS THE INVESTMENT ADVISER. SS&C TECHNOLOGIES, INC., MAINTAINS CERTAIN OF EACH SUCH FUND'S ACCOUNTING AND ADMINISTRATIVE BOOKS AND RECORDS."
1051108,"SS&C FUND SERVICES (ASIA) LIMITED","UNIT 706-7, CENTRAL PLAZA","18 HARBOUR ROAD, WAN CHAI","HONG KONG","","Hong kong","","N","+852 2589 5721","+65 6595 8687","A third-party unaffiliated record keeper","RELEVANT DOCUMENTATION IN RESPECT OF EACH OF THE COMPLUS ASIA MACRO MASTER FUND LTD, COMPLUS ASIA MACRO FUND LTD,  COMPLUS ASIA MACRO JPY FUND, COMPLUS ASIA RATES DRAGON FUND LTD, COMPLUS ASIA RATES 2011 FUND LTD, AND COMPLUS ASIA MACRO US FEEDER FUND LTD"
1053140,"IRON MOUNTAIN","NORMAN ROAD","PICKARDY MANOR WAY","BELVEDERE, KENT","","United Kingdom","DA17 6JY","N","+44800270270","","A third-party unaffiliated record keeper","CERTAIN BOOKS AND RECORDS AS REQUIRED UNDER RULE 204-2 OF THE ADVISERS ACT, OTHER COMPANY DOCUMENTS"
1054859,"ELIAN FUND SERVICES (JERSEY) LIMITED","44 ESPLANADE","","ST HELIER","","Jersey","JE4 9WG","N","441534504000","441534504444","A third-party unaffiliated record keeper","CERTAIN BOOKS AND RECORDS RELATED TO  ADP I GP LIMITED AND ADP I LP."
1054859,"INTERNATIONAL FINANCIAL SERVICES LIMITED","IFS COURT, BANK STREET","TWENTYEIGHT, CYBERCITY","EBENE","","Mauritius","72201","N","2304673000","2304674000","A third-party unaffiliated record keeper","CERTAIN BOOKS AND RECORDS RELATED TO DPI MNANAGEMENT LTD AND AFRICAN DEVELOPMENT PARTNERS I LLC."
1054859,"AUGENTIUS (GUERNSEY) LIMITED","GROUND FLOOR, CAMBRIDGE HOUSE","LE TRUCHOT","ST PETER PORT","","Guernsey","GY1 1WD","N","441481734300","441481734301","A third-party unaffiliated record keeper","CERTAIN BOOKS AND RECORDS RELATED TO ADP II GP LIMITED AND AFRICAN DEVELOPMENT PARTNERS II L.P."
1046698,"CITCO FUND SERVICES (IRELAND) LIMITED","CUSTOM HOUSE PLAZA, BLOCK 6","INTERNATIONAL FINANCIAL SERVICES CENTRE","DUBLIN 1","","Ireland","","N","3530214836600","3530214836405","A third-party unaffiliated record keeper","FUND AND COMPLIANCE RECORDS"
1048284,"THROGMORTON UK LIMITED","READING BRIDGE HOUSE GEORGE STREET","","READING","","United Kingdom","RG1 8LS","N","+441189217686","N/A","A third-party unaffiliated record keeper","THIRD PARTY ADMINISTRATOR FOR THE PRIVATE FUNDS"
1047003,"DROPBOX, INC. DBA DROPBOX.COM","760 MARKET STREET","SUITE 1150","SAN FRANCISCO","CA","United States","94102","N","14159867057","","A third-party unaffiliated record keeper","BACKUP FILES, MODELS"
1047003,"GOOGLE, INC.","1600 AMPITHEATRE PARKWAY","","MOUNTAIN VIEW","CA","United States","94043","N","1-650-253-0000","1-650-253-0001","A third-party unaffiliated record keeper","EMAILS, CONTACTS, CALENDARS WHICH ARE KEPT ON GOOGLE'S NETWORK OF DATA CENTERS AT DIVERSIFIED LOCATIONS"
1047003,"BLOOMBERG L.P.","731 LEXINGTON AVENUE","","NEW YORK","NY","United States","10022","N","212-318-2000","","A third-party unaffiliated record keeper","BLOOMBERG INSTANT MESSAGES, EMAILS, TRADE RECORDS"
1047003,"SS&C TECHNOLOGIES, INC.","80 LAMBERTON ROAD","","WINDSOR","CT","United States","06095","N","860-298-4668","860-371-2503","A third-party unaffiliated record keeper","FUND TRADING RECORDS, ACCOUNTING RECORDS, PRIME BROKERAGE, CUSTODY, MARGIN STATEMENTS FROM TRADING COUNTERPARTIES, INVESTOR RECORDS"
1046503,"LANGHAM HALL HONG KONG LTD","4508-09 THE CENTER, 99 QUEENS ROAD CENTRAL","","HONG KONG","","Hong kong","","N","+852-2180-7441","","A third-party unaffiliated record keeper","BOOKS AND RECORDS OF ADV PARTNERS CAPITAL MANAGEMENT LTD. AND THE ENTITY TO WHICH IT PROVIDES ADVICE."
1057620,"IPES (GUERNSEY) LIMITED","1 ROYAL PLAZA","ROYAL AVENUE","ST PETER PORT","","Guernsey","GY12HL","N","01481713843","01481715219","A third-party unaffiliated record keeper","ADMINISTRATOR TO PRIVATE FUND: ABERDEEN PRIVATE EQUITY FUND LIMITED"
1057620,"IRON MOUNTAIN","3RD FLOOR COTTONS CENTRE","TOOLEY STREET","LONDON","","United Kingdom","SE1 2TT","N","+44 800270270","","A third-party unaffiliated record keeper","LOCATION FOR ARCHIVED RECORDS"
1057620,"BELASKO ADMINISTRATION LIMITED","1 LE TRUCHOT","","ST PETER PORT","","Guernsey","GY11WD","N","01481738101","","A third-party unaffiliated record keeper","ADMINISTRATOR TO PRIVATE FUND: ALDWYCH CAPITAL PARTNERS LP"
1048296,"TRIDENT TRUST COMPANY","3060 PEACHTREE ROAD NW","SUITE 1415","ATLANTA","GA","United States","30305","N","404-364-2019","404-364-2013","A third-party unaffiliated record keeper","FUND ACCOUNTING RECORDS, PARTNER CAPITAL ACCOUNT INFORMATION."
1052250,"SS&C FUND SERVICES (CAYMAN) LTD.","45 MARKET STREET, SUITE 3205, 2ND FLOOR","GARDENIA COURT, CAMANA BAY","GRAND CAYMAN","","Cayman Islands","KY1-9003","N","345-943-3330","","A third-party unaffiliated record keeper","FUND-RELATED BOOKS AND RECORDS."
1052250,"CAPULA INVESTMENT MANAGEMENT LLP","8 LANCELOT PLACE","","LONDON","","United Kingdom","SW7 1DR","N","4420-7071-0900","","One of your branch offices or affiliates","CERTAIN CAPULA INVESTMENT MANAGEMENT ASIA LIMITED BOOKS AND RECORDS."
1056768,"MADISON INDIA CAPITAL MANAGEMENT, LLC","C/O CIM FUND SERVICES LTD","33 EDITH CAVELL STREET","PORT LOUIS","","Mauritius","11324","N","230-212-9800","+230 2129833","One of your branch offices or affiliates","[TO COME]"
